,name,district,district,city,directions,latitude,longitude
159,אלקנה,אלקנה היה בנו של ירוחם ואביו של שמואל הנביא. &nbsp; &nbsp;,גליל עליון,מירון,"<p> פונים מזרחה מצומת מירון בכביש 89 לכיוון צפת, לאחר כ- 2.7 ק&quot;מ מצד שמאל לכביש רואים מבנה קטן עם גג ובו מערת כוכים, מס' צעדים לפני המבנה פונה דרך עפר שמאלה באורך כ- 750 מ' אל עבר ציונו של ר' אלקנה.</p>
<p> </p>",32.997667,35.467664
158,אסתר המלכה,"אסתר בת אביחיל משבט בנימין, נקראה גם הדסה, וגודלה ע&quot;י מרדכי בן דודה לאחר מות הוריה, לאחר מות ושתי המלכה נבחרה אסתר למלכה. ושהמן ציווה להרוג את היהודים ביקש אותה מרדכי לגשת אל המלך ולהתחנן להצלת היהודים, בתחילה&hellip;",גליל עליון,ברעם,"<p>מכביש 89 עולים בצומת חירם צפונה- מזרחה בכביש 899, מצומת חירם פונים צפונה, ולאחר מכן ימינה בדרך עפר, ולאחר כ- 650 מ' בדרך זו פונים ימינה בשביל צר המתפתל בסבך עצי יער כ- 10 דק' עד למצבה הבנויה מאבנים גדולות ואשר הרוסה בחלקה שם קבורים מרדכי ואסתר.</p>
<p> </p>",33.058979,35.433235
157,בלהה,"בלהה היתה שפחת רחל, כשראתה רחל כי עקרה היא נתנה את שפחתה ליעקב כדי שתלד לו ילדים. ואכן, בלהה ילדה  2 בנים- דן ונפתלי. כל ימיהם של לאה ורחל השכינה היתה שורה אצלם, וכשמתו, השכינה לא הסתלקה מהבית&hellip;",גליל תחתון,טבריה,"<p>נכנסים לטבריה דרך כביש 90 ונוסעים לרח' אלחדף. לאחר מכן פונים ימינה לרח' אוהל יעקב, שמאלה לרח' נייברג ובהמשכו לרח' השומר, אשר בסופו כ- 100 מ' מצד שמאל של הרחוב נמצאת מצבה המוקפת בגדר ואשר נקראת 'קברי האמהות'.</p>",32.802142,35.522612
156,בניהו בן יהוידע,"בניהו בן יהוידע היה אחד מגיבורי דוד המלך, לאחר מכן התמנה לשר הצבא של שלמה המלך.",גליל עליון,ביריה,"<p><span dir=""rtl"" lang=""HE"" style=""line-height: 115%; font-family: 'Arial','sans-serif'; font-size: 11pt; mso-ascii-font-family: Calibri; mso-ascii-theme-font: minor-latin; mso-fareast-font-family: Calibri; mso-fareast-theme-font: minor-latin; mso-hansi-font-family: Calibri; mso-hansi-theme-font: minor-latin; mso-bidi-theme-font: minor-bidi; mso-ansi-language: EN-US; mso-fareast-language: EN-US; mso-bidi-language: HE;""><span style=""color: #000000;"">עולים בכביש 8900 מראש פינה לצפת, מול כביש הכניסה לצפת פונים צפונה לכיוון ביריה, לאחר כ- 400 מ' מצד שמאל של הכביש רואים מצבה אשר מוקפת גדר אבן, זהו קברו של בניהו בן יהוידע.</span></span></p>",32.979541,35.504346
155,ברק בן אבינועם ודבורה הנביאה,"דבורה וברק שפטו את ישראל במשך ארבעים שנה משנת ב' תרל&quot;ו ועד תרע&quot;ו. דבורה היתה אשת ברק, ובעת נבואתה פירשה ממנו ארבעים שנה. אמר ברק על דבורה הנביאה: &quot;אם תלכי עמי והלכתי&quot;- מכיוון שרוח הקודש שורה עליה, בזכותה&hellip;",גליל עליון,רמות נפתלי,"<p>פונים מערבה מצומת ישע לכיוון צומת חירם. לאחר כ- 1.8 ק&quot;מ, מימין לכביש, מסתעף צפונה כביש צדדי וצר, פונים ימינה בין שני הכבישים (ליד ההסתעפות) לעבר שביל צר ומגיעים לארונות קבורה גדולים העשויים מאבן ובהם קבורים ברק בן אבינועם ודבורה הנביאה.</p>",33.115471,35.534582
154,דינה בת יעקב,"דינה היא ביתם של יעקב ולאה אשר נולדה לאחר שישה בנים. במדרש נדרש שמה על שם 'דין', שכשהייתה לאה הרה דנה דין בעצמה שלא ייוולד לה בן כי אם דווקא בת. &nbsp; &nbsp;",,,"<p>פונים מדרך מנחם בגין שבטבריה אל צומת כפר חיטים מערבה לכביש 7717. לאחר כ- 3 ק&quot;מ פונים ימינה לעבר מושב ארבל, ולאחר כ- ק&quot;מ פונים שמאלה, וממשיכים עד לאחר הבתים האחרונים של המושב, ובמורד ההר נמצא קברה של דינה.</p>
<p> </p>",32.813831,35.475635
153,דן בן יעקב,"דן הוא בנם הבכור של יעקב אבינו ובלהה (שפחת רחל), בן שביעי ליעקב. רחל אימנו בחרה את שמו באמרה: &quot;דנני אלוקים וגם שמע בקולי ויתן לי בן, על כן קראה שמו דן&quot;. (בראשית ל, ה-ו). &nbsp; &nbsp;",ירושלים והסביבה,אשתאול,"<p> (ע&quot;פ יהושע יט, מא:) דן נקבר בנחלת שבטו, בעיר אשתאול. ציונו נמצא על יד אשתאול של ימינו. 2 ק&quot;מ מערב מצומת שמשון, הנמצא לימין הדר, על כביש 44. </p>
<p> </p>",31.780385,35.010102
151,האמורא רב ברונא,"רב ברונא היה אמורא בבלי בדור השני. תלמידו של רב, ומסר אף דברים בשמו של רב ובשם שמואל. היה חברו של רב חננאל ור' אלעזר בן פדת אשר היה מכנהו בכינוי חיבה 'אחי'. &nbsp;",גליל תחתון,טבריה,"<p>נכנסים לטבריה מכביש 90 ומגיעים לרח' הבנים, בכיכר רבין פונים שמאלה לרח' הירדן וימינה לרח' העמקים, אשר בסופו רואים בצד ימין חצר המוקפת גדר, שם מקום קברו של רב ברונא</p>",32.788846,35.536412
152,האמורא רב ייבא סבא,ר' ייבא סבא היה אמורא. נכדו של שמואל האמורא. &nbsp;,גליל עליון,מירון,"<p>לפני הכניסה לחצר הציון של רשב&quot;י נמצא מימין לכביש מבנה בעל שתי כיפות, ובו נמצאת מערת ר' אדא סבא.</p>
",32.985226,35.441643
150,האמורא רבי בנאה,רבי בנאה היה חכם מדור המעבר בין התנאים לאמוראים ודבריו עוד נכנסו לברייתות. מרבית מאמריו היו באגדה. האמורא ר' יוחנן היה תלמידו והרבה למסור את רוב מאמריו. לר' בנאה היה בית מדרש בטבריה. מסופר על דאגתו לציין מערות&hellip;,גליל עליון,מירון,"<p class=""MsoNormal"" dir=""rtl"" style=""margin: 0cm 0cm 10pt;""><span lang=""HE"" style=""font-family: 'Arial','sans-serif'; mso-ascii-font-family: Calibri; mso-ascii-theme-font: minor-latin; mso-hansi-font-family: Calibri; mso-hansi-theme-font: minor-latin; mso-bidi-theme-font: minor-bidi; mso-bidi-font-family: Arial;""><span style=""font-size: medium;""><span style=""color: #000000;"">פונים מזרחה מצומת מירון בכביש 89 לכיוון צפת, לאחר כ- 2.7 ק&quot;מ מצד שמאל לכביש רואים מבנה קטן עם גג ובו מערת כוכים, מס' צעדים לפני המבנה פונה דרך עפר שמאלה באורך כ- 750 מ' אל עבר ציונו של ר' אלקנה ור' בנאה.</span></span></span></p>",32.997667,35.467664
53,האמורא רבי כרוספדאי,"רבי כרוספדאי היה מאמוראי ארץ ישראל בדור השלישי לאמוראים. בנו של ר' שבתאי. מתלמידי ר' יוחנן. מוזכר בתלמוד הירושלמי עשרות פעמים בשם: ר' קריספא. אמר רבי כרוספדאי אמר ר' יוחנן: שלשה ספרים נפתחין בראש השנה, אחד של רשעים&hellip;",גליל עליון,מירון,"<p>פונים מזרחה מצומת מירון בכביש 89 לכיוון צפת, לאחר כ- 2.7 ק&quot;מ מצד שמאל לכביש רואים מבנה קטן עם גג ובו מערת כוכים, שם קבורים משפחתו של ר' יוסי דמן יוקרת. בסוף הירידה, ישנה דרך עפר המסתעפת שמאלה. במורד ההר, בצד ימין, ישנם מדרגות העולות אל המבנה שעל מערת ר' כרוספדאי התנא, ליד המערה נמצא קברו של ר' כרוספדאי האמורא.</p>",32.994873,35.476187
149,הלל הזקן,"הלל הזקן היה מגדולי חכמי ישראל. הלל ושמאי היו ה'זוג' האחרון, הלל היה נשיא הסנהדרין, ושמאי היה אב בית דין. בן ארבעים היה כשעלה מבבל לארץ ישראל, ארבעים שנה למד וארבעים שנה פינס את עם ישראל, חי מאה&hellip;",גליל עליון,מירון,"<p> יורדים שמאלה במדרגות מהרחבה שלפני ציון הרשב&quot;י, ממשיכים בשביל, ולאחר כ- 150 מ' מגיעים למערת בית הלל אשר נמצאת בצד ימין, בסוף הפרוזדור, בצד ימין, מקום קבורתו של הלל הזקן.</p>
<p> </p>",32.985226,35.441643
148,התנא אבא חלקיה,"אבא חלקיה היה בן בנו של חוני המעגל,חי בסוף תקופת בית שני, כשהיה העולם זקוק לגשמים  היו חכמים שולחים אליו לבקש רחמים. באחד הפעמים, כשהצטרך העולם לגשמים, שלחו אליו החכמים שני תלמידים שיבקשו ממנו להתפלל על הגשמים, מצאו&hellip;",,,"<p class=""MsoNormal"" dir=""rtl"" style=""margin: 0cm 0cm 10pt;"">נוסעים צפונה בכביש 90, לאחר צומת ראש פינה פונים שמאלה לחצור הגלילית. נוסעים כ- 1.7 ק&quot;מ עד לסוף העיירה, ושם פונים שמאלה בכביש הסובב במעלה ההר, ולאחר כ- 270 מ' בצד ימין נבחין במבנה של מערה ועליה כיפה וזוהי המערה של אבא חלקיה.</p>",32.982387,35.537578
147,התנא אדמון בן גדאי,"בן גדאי היה דיין מדייני הגזרות שבירושלים בסוף ימי בית שני, בסוף תקופת הזוגות ותחילת תקופת התנאים, בימיהם של שמעיה ואבטליון. &nbsp; &nbsp;",גליל עליון,עכברה,"<p>פונים מערבה בכביש 90 במחלף אליפלט לכיוון כביש 89, לאחר כ- 3 ק&quot;מ פונים שמאלה בדרך עפר ומגיעים לציון.</p>",32.947834,35.548516
146,התנא בנימין הצדיק,"בנימין הצדיק היה תנא שזמנו אינו ידוע. הובאו בשמו ארבעה מאמרי אגדה בתלמוד הבבלי, אשר שלושה מתוכם מתייחסים לענייני תפילה. &nbsp;",גליל עליון,צפת,"<p>ליד התחנה המרכזית, בכביש הכניסה לצפת, פונים ימינה לרח' ירושלים, ומשם פונים שוב ימינה לרח' האר&quot;י, לאחר כ- 100 מ' פונים שמאלה לרח' הפלמ&quot;ח, וימינה לרח' הנשיא, ימינה לרח' הרצל, שוב ימינה לרח' ויצמן ושמאלה לרח' לוחמי הגיטאות. ולאחר כ- 100 מ' נמצאת בצד ימין מצבת התנא בנימין הצדיק.</p>",32.958405,35.499912
144,התנא ר' אלעזר המודעי,"ר' אלעזר המודעי היה תנא בדור השני לאחר החורבן, בתקופת רבי עקיבא, התגורר בקרבת ירושלים במקום שנקרא 'הר המודעי'. נפטר בשנת ג' תת&quot;פ.",,,"<p>בכביש 8900 עולים מראש פינה לצפת, פונים צפונה מול כביש הכניסה לצפת, לכיוון בירייה. לאחר מכן מגיעים להסתעפות כבישים ובה כיכר, בכביש השלישי שבכיכר פונים ימינה, ומשם נוסעים ישר בדרך עפר, פונים ימינה לאחר כ- 100 מ' לעבר כביש צר שמוליך לעמוקה. לאחר כ- 2.5 ק&quot;מ פונים שמאלה אל דרך חדשה ולאחר כ- 1.8 ק&quot;מ מגיעים למסעף דרכים, ומשם ממשיכים ישר עד למסעף עמוקה, וממשיכים בדרך העפר הראשית. לאחר כ- 2 ק&quot;מ מגיעים להסתעפות והשביל הסמוך לדרך הימנית יורד כ- 100 מ' למבנה אשר בו נמצאת מערת ר' אלעזר המודעי.</p>",33.003411,35.507836
54,התנא רבי כרוספדאי,כרוספדאי היה תנא. אשר כונה בספר הזוהר 'חמיד לבא' – חמוד הלב. &nbsp; &nbsp;,גליל עליון,מירון,"<p class=""MsoNormal"" dir=""rtl"" style=""margin: 0cm 0cm 10pt;""> פונים מזרחה מצומת מירון בכביש 89 לכיוון צפת, לאחר כ- 2.7 ק&quot;מ מצד שמאל לכביש רואים מבנה קטן עם גג ובו מערת כוכים, שם קבורים משפחתו של ר' יוסי דמן יוקרת. בסוף הירידה, ישנה דרך עפר המסתעפת שמאלה. במורד ההר, בצד ימין, ישנם מדרגות העולות אל המבנה שעל מערת ר' כרוספדאי.</p>",32.982103,35.491691
142,חבקוק הנביא,חבקוק היה נביא מתקופת בית ראשון. נבואותיו מצויות בשמיני מספרי תרי עשר. &nbsp;,גליל תחתון,חוקוק,"<p>פונים מערבה מכביש 90 בצומת עמיעד לעבר כביש 85,ופונים דרומה בצומת נחל עמוד (צומת קדרים) לכביש 65, לאחר כ- 2 ק&quot;מ פונים מערבה לדרך עפר, שם ישנו שביל להולכי רגל באורך כ- 100 מ' הממשיך עד למקום קברו של חבקוק הנביא.</p>",32.889645,35.479347
141,חוני המעגל,"חוני המעגל היה תנא, חי בדורו של שמעון בן שטח. נכדו של חוני המעגל הראשון. עולים לקברו בג' באייר. היה נוהג לסמן סביבו מעגל ולעמוד בתוכו ולהתפלל עד שבקשתו תתקבל. פעם אחת יצא רוב חודש אדר ולא ירדו&hellip;",,,"<p>נוסעים צפונה בכביש 90, לאחר צומת ראש פינה פונים שמאלה לחצור הגלילית. נוסעים כ- 1.7 ק&quot;מ עד לסוף העיירה, ושם פונים שמאלה בכביש הסובב במעלה ההר, ולאחר כ- 270 מ' בצד ימין נבחין במבנה של מערה ועליה כיפה וזוהי המערה של אבא חלקיה וחנן הנחבא- נכדיו של חוני המעגל. ממשיכים עוד כ- 300 מ' בדרך העפר עד למערת חוני המעגל.</p>
<p> </p>",32.982978,35.534281
140,חושי הארכי,חושי הארכי היה חברו ויועצו של דוד המלך. משמעות שמו – שהיה מארכי דוד. ויש אומרים שנקרא ע&quot;ש עירו. &nbsp; &nbsp;,גליל מערבי,ירכא,"<p>מכביש 85, פונים ימינה בצומת יאסיף אל כביש 70. בצומת ג'וליס פונים ימינה לכיוון כביש 8533, ולאחר כ- 1.2 ק&quot;מ פונים שמאלה אל כפר ירכא, ולאחר כ- 4 ק&quot;מ, בתוך הכפר, פונים שמאלה ברחוב צר, ממשיכים עד שרואים מבנה קטן עם כיפה בין הבתים, שם קבור חושי הארכי.</p>",32.95557,35.211274
138,חזקיה,"חזקיה היה אמורא בדור הראשון בארץ ישראל. בנו של רבי חייא, אחיו התאום של יהודה ורבו של רבי יוחנן. בית מדרשו היה בטבריה, ושם אף נפטר ונקבר. &nbsp;",גליל תחתון,טבריה,"<p>נכנסים לטבריה מכביש 90 ומגיעים לרח' הבנים, פונים שמאלה בכיכר רבין לעבר רח' הירדן, ולאחר מכן ימינה לרח' יהודה הלוי. לאחר העיקול ימינה, ישנם מדרגות, בצד שמאל, העולות עד לקברו של ר' חייא ובניו.</p>",32.786059,35.532207
139,חזקיה ראש הגולה,"חזקיה היה בנו של נעריה בן שמעיה. נקבר בארץ ישראל, סמוך למושב ארבל. &nbsp;",,,"<p>פונים מדרך מנחם בגין שבטבריה אל צומת כפר חיטים מערבה לכביש 7717. לאחר כ- 3 ק&quot;מ פונים ימינה לעבר מושב ארבל, פונים שמאלה ברח' הראשי, ולאחר כ- 150 מ' שוב פונים שמאלה, עד לדרך עפר הפונה שמאלה ויוצאת מן המושב לעבר גבעת ארבל. ולאחר כ- 1 ק&quot;מ נמצא קברו של חזקיה ראש הגולה.</p>",32.820681,35.494832
101,חנה ושבעת בניה,"חנה ושבעת בניה נהרגו על קידוש השם על רקע גזרותיו של אנטיוכוס הרשע בשנת ג' תרט&quot;ז. נציגי הקיסר ניסו לשכנה את חנה ושבעת בניה להשתחוות לפסל ולאכול מבשר חזיר, כל אחד מהבנים סירב לזאת, והוצא להורג בעינויים קשים&hellip;",גליל עליון,צפת,"<p>ליד התחנה המרכזית, בכביש הכניסה לצפת, פונים ימינה לרח' ירושלים, ומשם פונים שוב ימינה לרח' האר&quot;י, בסוף הרח' ישנם מדרגות היורדות עד לבית הקברות. בסיום המדרגות ישנו שביל הפונה שמאלה אל מקווה האר&quot;י, לא רחוק משם נמצא קברם של חנה ושבעת בניה.</p>
",32.968209,35.488668
99,חנן הנחבא,"חנן הנחבא היה חסיד ואיש מופת, חי במאה האחרונה שלפני חורבן בית שני. בן בתו של חוני המעגל. &nbsp;",,,"<p>נוסעים צפונה בכביש 90, לאחר צומת ראש פינה פונים שמאלה לחצור הגלילית. נוסעים כ- 1.7 ק&quot;מ עד לסוף העיירה, ושם פונים שמאלה בכביש הסובב במעלה ההר, ולאחר כ- 270 מ' בצד ימין נבחין במבנה של מערה ועליה כיפה וזוהי המערה של אבא חלקיה וחנן הנחבא.</p>",32.982335,35.537574
88,יהוידע הכהן,יהוידע היה כהן גדול. אביו של בניהו בן יהוידע.,גליל עליון,צפת,"<p dir=""rtl"">ליד התחנה המרכזית, מכביש הכניסה לצפת, המתחבר עם רח' ירושלים, ממשיכים עד לשער התחתון של בית הקברות. לפני הכניסה לשער ממשיכים ישר בדרך עפר, ולאחר כ- 60 מ' פונים שמאלה, לאחר כ- 250 מ' מגיעים לאנדרטה המוקפת בגדר אבן, ולאחריה פונים ימינה בשביל שיורד בין הסלעים, ומגיעים אל ציונו של רבי חוצפית המתורגמן. משם פונים שמאלה במורד ההר, ומגיעים אל סלע גדול ועליו כיפה, זהו קברו של יהוידע הכהן.</p>
<p dir=""rtl""> </p>",32.970121,35.47527
85,יואל הנביא,"יואל הנביא חי בימי יהורם בן אחאב, וישנם שאומרים שבימי מנשה.נבואותיו מוזכרות בשני מספרי תרי עשר. &nbsp;",גליל עליון,גוש חלב,"<p>מכביש 89 נכנסים לרחוב הראשי של כפר גוש חלב, ומגיעים לצומת, משם ממשיכים בדרך עפר ברחוב השמאלי אל שדות ומטעי זיתים, לאחר כ- 600 מ' פונים ימינה, ולאחר מכן שמאלה בדרך העוברת בין מטעי הזיתים. ומגיעים אל מבנה הנמצא במעלה גבעה, ובו מערת יואל הנביא.</p>",33.028527,35.442534
79,יוכבד בת לוי,"יוכבד היא בת לוי בן יעקב, אשת עמרם, אימם של אהרון הכהן, משה רבנו ומרים הנביאה. בזמן גזרתו של פרעה להשמיד את כל התינוקות הזכרים של עם ישראל, לקחה יוכבד את משה בנה והחביאה אותו בתיבה אותה שלחה&hellip;",גליל תחתון,טבריה,"<p>נכנסים לטבריה דרך כביש 90 ונוסעים לרח' אלחדף. לאחר מכן פונים ימינה לרח' אוהל יעקב, שמאלה לרח' נייברג ובהמשכו לרח' השומר, אשר בסופו כ- 100 מ' מצד שמאל של הרחוב נמצאת מצבה המוקפת בגדר ואשר נקראת 'קברי האמהות'.</p>",32.802142,35.522612
78,יונה הנביא,"יונה בנו של אמיתי, היה נביא אשר סיפורו מובא בספר תרי עשר החמישי. ציווה הקב&quot;ה את יונה ללכת לנינוה ולבשר לתושביה כי 'עלתה רעתם לפני' (א, ב), סירב יונה ובחר לעזוב את ארץ ישראל לתרשיש, משום שמחוץ לארץ ישראל&hellip;",גליל מערבי,משהד,"<p>פונים דרומה בצומת בית רימון מכביש 77 אל כביש 754, ונכנסים לכפר משהד. שם פונים ימינה בהסתעפות הראשונה, לאחר כ- 600 מ' פונים שמאלה, ולאחר מכן שוב שמאלה, בצד ימין ישנו מסגד עם מגדל גבוה, ולאחריו מבנה קטן עם כיפות ובו מערת יונה הנביא.</p>",32.738885,35.323897
137,יעל וחבר הקיני,"יעל הייתה אשת חבר משבט הקיני, צאצאי יתרו, אשר נחשבו מקורבים לעם ישראל עוד מימי משה. וכי מה טיבה של יעל שבאת תשועה גדולה על ידה? אמרו, אישה כשרה הייתה ועושה רצון בעלה (ילקוט שמעוני שופטים מב). &nbsp;",גליל עליון,רמות נפתלי,"<p>פונים מערבה מצומת ישע לכיוון צומת חירם. לאחר כ- 1.8 ק&quot;מ, מימין לכביש, מסתעף צפונה כביש צדדי וצר, פונים ימינה בין שני הכבישים (ליד ההסתעפות) לעבר שביל צר ומגיעים לארונות קבורה גדולים העשויים מאבן באחד מהם קבור חבר הקיני.</p>",33.115414,35.534821
56,יתרו,"יתרו היה כהן מדין, אביה של ציפורה אשת משה רבנו. על שמו נקראה פרשת 'יתרו'. לאחר שברח משה מבית פרעה במצרים, הגיע לארץ מדין, ומצא מקלט בביתו של יתרו, שם רעה את צאנו, ולבסוף נשא את ציפורה בת&hellip;",גליל תחתון,כפר חיטים,"<p> פונים מערבה בצומת כפר חיטים לכביש 7717, וממשיכים כ- 1.7 ק&quot;מ, ולאחר מכן פונים שמאלה, לאחר כ- 1.5 ק&quot;מ מגיעים אל מבנה עם כיפות, עולים עם המדרגות לקומה השנייה, ובקצה הימני של האולם ישנו חדרון ובו נמצא קברו של יתרו.</p>
<p> </p>",32.799998,35.50328
47,מיכה הנביא,"מיכה היה מנביאי התרי עשר. חי בשנת ג' ק&quot;ס לערך. נבואותיו מובאות בספר מיכה, השישי מספרי תרי עשר. היה משבט יהודה, והתגורר בעיר מרשה שבנחלת שבט יהודה. קיבל תורה מישעיהו בן אמוץ. &nbsp;",גליל מערבי,כאבול,"<p>נוסעים בכביש 70, וכ- 4.5 ק&quot;מ דרומית לצומת אחיהוד פונים מזרחה בכביש שנכנס לכפר כבול, לאחר כ- 3 ק&quot;מ בתוך הכפר פונים ימינה ומיד שמאלה במעלה הכפר, לאחר כ- 500 מ', בצד שמאל, רואים בית קברות של ישמעאלים, בתוכו ישנה מערה ועליה חורבה של מבנה אבנים, שם קברו של מיכה הנביא.</p>",32.867114,35.20971
136,מר זוטרא,"מר זוטרא היה אמורא בבלי בדור השישי. היה חברם של אמימר ושל רב אשי. היה ראש ישיבת פומבדיתא. קבע כי אדם שאינו נזהר מלהשתמש בבגד של השני, חשוד הוא אף בגניבה. ואכן- כאשר נגנבה לו כוס של כסף,&hellip;",גליל עליון,ברעם,"<p><strong> </strong>מכביש 89 עולים צפונה- מזרחה בצומת חירם לכביש 899, ומשם פונים ימינה ברגל בדרך עפר כ- 80 מ' לעבר המבנה שנמצא מעל מערת ר' נחמן חטופא, וממנו ממשיכים עוד כ- 150 מ' ומגיעים למבנה שעל ציונו של מר זוטרא.</p>",33.047382,35.415716
27,מר עוקבא,"מר עוקבא היה מאמוראי בבל בדור השלישי לאמוראים. היה תלמידו של שמואל. שימש כאב בית דין בעיר כפרי. היה נותן צדקה בסתר, על מנת שלא לבייש את העניים. מסופר כי היה מניח כל יום בחשאי ארבעה דינרים בפתח&hellip;",גליל עליון,עכברה,"<p><strong> </strong>מכביש 89 נכנסים לצפת לכיוון בית החולים זיו, כ- 100 מ' לפני כביש הכניסה לביה&quot;ח פונים ימינה לכיוון כפר עכברה, לאחר כ- 3 ק&quot;מ פונים שמאלה בדרך עפר והיורדת לתוך הכפר, מגיעים להסתעפות דרך עפר ופונים מעט שמאלה בדרך ההר, עוקפים את ההר ויורדים אל הנחל הנמצא בצידו השני של ההר, שם נובע מעיין קטן, משם עולים עם הנחל, ופונים שמאלה בשביל תלול אשר מגיע אל קברו של עקביא בן מהללאל ואדמון. משם פונים דרומה, ולאחר כ- 1 ק&quot;מ רואים מערה גבוהה עם נקיקים רבים בסביבותיה, זהו מקום קברו של מר עוקבא.</p>",32.934047,35.507532
43,מרדכי הצדיק,"מרדכי הצדיק הוא אומנה ובן דודה של אסתר המלכה. &quot;איש יהודיה היה בשושן הבירה ושמו מרדכי בן יאיר בן שמעי בן קיש איש ימיני, אשר הגלה מירושלים עם הגולה אשר הגלתה עם יכניה מלך יהודה, אשר הגלה נבוכדנצר&hellip;",גליל עליון,ברעם,"<p>מכביש 89 עולים בצומת חירם צפונה- מזרחה בכביש 899, מצומת חירם פונים צפונה, ולאחר מכן ימינה בדרך עפר, ולאחר כ- 650 מ' בדרך זו פונים ימינה בשביל צר המתפתל בסבך עצי יער כ- 10 דק' עד למצבה הבנויה מאבנים גדולות ואשר הרוסה בחלקה שם קבורים מרדכי ואסתר.</p>",33.037523,35.419008
36,נחום איש גמזו,נחום איש גמזו היה תנא בדור השני. חי בעיירה גמזו שבסביבות לוד. רבו של ר' עקיבא. היה נוהג לומר על כל דבר שקרה לו: 'גם זו לטובה'. מסופר כי פעם אחת שיגרו ישראל דורון בידי נחום לבית הקיסר&hellip;,גליל עליון,צפת,"<p>ליד התחנה המרכזית, בכביש הכניסה לצפת, פונים ימינה לרח' ירושלים, ומשם פונים שוב ימינה לרח' האר&quot;י, לאחר כ- 100 מ' פונים שמאלה לרח' הפלמ&quot;ח, לאחר מכן פונים ימינה לרח' הנשיא, ושמאלה לרח' איש גמזו. ולאחר כ- 100 מ', מצד שמאל, נמצאת המצבה של נחום איש גמזו.</p>",32.960576,35.497009
34,נחמן קטופא,"מסופר כי פנחס בן יאיר ואשתו רחל שחיו בכפר ברעם, היו חשוכי ילדים במשך שנים רבות, ובשנת ת&quot;ק לחורבן בית שני נולד להם בנם נחמן – ע&quot;ש שניחמם על שנות העקרות. וכבר ביומו הראשון החל לדבר דברי תורה,&hellip;",גליל עליון,ברעם,"<p>מכביש 89 עולים בצומת חירם צפונה- מזרחה בכביש 899, מצומת חירם פונים צפונה, ולאחר מכן ימינה בדרך עפר, הליכה רגלית, אל עבר המבנה שנמצא על מערת ר' נחמן קטופא.</p>",33.048384,35.415181
32,נתאי הארבלי,"נתאי הארבלי חי בתקופת החשמונאים. היה אב בית דין, בתקופת הזוגות, יחד עם רבי יהושע בן פרחיה ששימש כנשיא הסנהדרין. היה מחכמי הזוגות. קיבל מיוסי בן יועזר ומיוסי בן יוחנן. נתאי הארבלי אומר: 'הרחק משכן רע, ואל תתחבר&hellip;",,,"<p>פונים מדרך מנחם בגין שבטבריה אל צומת כפר חיטים מערבה לכביש 7717. לאחר כ- 3 ק&quot;מ פונים ימינה לעבר מושב ארבל, ולאחר כ- ק&quot;מ פונים שמאלה, וממשיכים עד לאחר הבתים האחרונים של המושב, זהו מקום קברו של נתאי הארבלי.</p>
<p> </p>",32.813831,35.475635
31,סומכוס,"סומכוס היה תנא בדור החמישי לתנאים. תלמידו המובהק של ר' מאיר, ציטט בשמו אמרות רבות. נאמר עליו: 'אמר ר' אבהו אמר ר' יוחנן: תלמיד היה לו לר' מאיר וסומכוס שמו, שהיה אומר על כל דבר ודבר של טומאה&hellip;",גליל תחתון,טבריה,"<p class=""MsoNormal"" dir=""rtl"" style=""margin: 0cm 0cm 10pt;"">מכביש 90 נכנסים לטבריה, אל עבר שדרות קפלן. פונים שמאלה לפני 'חמי טבריה' אל קבר ר' מאיר בעל הנס. משמאל לקבר ישנם מדרגות היורדות אל קברו של סומכוס.</p>",32.765647,35.550123
29,עדינו העצני,"עדינו העצני היה מראשי הגיבורים אשר לדוד המלך. &quot;אלה שמות הגיבורים אשר לדוד, יושב בשבת תחכמני ראש השלשי הוא עדינו העצני, על שמנה מאות חלל בפעם אחד&quot; (שמואל ב' כג, ח). &nbsp;",גליל עליון,צפת,"<p>ליד התחנה המרכזית, בכביש הכניסה לצפת, פונים ימינה לרח' ירושלים, ומשם פונים שוב ימינה לרח' האר&quot;י, לאחר כ- 100 מ' פונים שמאלה לרח' הפלמ&quot;ח, וימינה לרח' הנשיא, ימינה לרח' הרצל, ושוב ימינה לרח' ויצמן. בצומת פונים שמאלה ולאחר מכן ימינה לרח' רמז, וממשיכים עד לסוף השיכונים אשר בצד שמאל, פונים שמאלה וימינה בכביש צר אל עבר בית הקברות, ורואים בצד ימין את מצבתו של עדינו העצני.</p>",32.955094,35.496732
28,עובדיה הנביא,"עובדיה היה אחד מנביאי התרי עשר, ונבואותיו מובאות ברביעי מספרי תרי עשר. היה מבית דינו של אליהו הנביא. 'מפני מה זכה עובדיה לנבואה? מפני שהחביא מאה נביאים במערה' (סנהדרין לט, ע&quot;ב).",גליל עליון,ברעם,"<p> מכביש 89 עולים בצומת חירם צפונה- מזרחה בכביש 899. כ- 100 מ' לאחר כפר ברעם העתיק פונים ימינה, דרך שביל בטון צר, אל עבר ציון קברו של עובדיה הנביא.</p>",33.049603,35.415086
25,עקביא בן מהללאל,"עקביא בן מהללאל היה תנא לפני חורבן בית שני, בזמנם של הלל ושמאי. ממקבלי תורתם של שמעיה ואבטליון. מאמרו המפורסם: 'הסתכל בשלושה דברים ואין אתה בא לידי עבירה: דע מאין באת, ולאן אתה הולך, ולפני מי אתה עתיד&hellip;",,,"<p>מכביש 89 נכנסים לצפת לכיוון בית החולים זיו, כ- 100 מ' לפני כביש הכניסה לביה&quot;ח פונים ימינה לכיוון כפר עכברה, לאחר כ- 3 ק&quot;מ פונים שמאלה בדרך עפר והיורדת לתוך הכפר, מגיעים להסתעפות דרך עפר ופונים מעט שמאלה בדרך ההר, עוקפים את ההר ויורדים אל הנחל הנמצא בצידו השני של ההר, שם נובע מעיין קטן, משם עולים עם הנחל, ופונים שמאלה בשביל תלול אשר מגיע אל קברו של עקביא בן מהללאל.</p>",32.940448,35.510704
22,צפורה,"צפורה היא בתו של יתרו כהן מדין, אשת משה רבנו ואמם של גרשום ואליעזר. נקראה 'צפורה' &#8211; על שם שטיהרה את הבית כציפור &nbsp;",גליל תחתון,טבריה,"<p class=""MsoNormal"" dir=""rtl"" style=""margin: 0cm 0cm 10pt;"">נכנסים לטבריה דרך כביש 90 ונוסעים לרח' אלחדף. לאחר מכן פונים ימינה לרח' אוהל יעקב, שמאלה לרח' נייברג ובהמשכו לרח' השומר, אשר בסופו כ- 100 מ' מצד שמאל של הרחוב נמצאת מצבה המוקפת בגדר ואשר נקראת 'קברי האמהות'</p>",32.802011,35.522611
135,ר' אבדימי,"ר' אבדימי היה אמורא בדור השני והשלישי לאמוראי ארץ ישראל. ישב בעיירה הקטנה חיפה, היה נקרא גם רב דימי דמן חיפה, או רבי אבדיא דחיפה.דבריו מובאים בשני התלמודים. &nbsp;",חיפה ועמקים,חיפה,"<p>נכנסים לחיפה מכיוון תל אביב, מגיעים לצומת הרחובות יפו &#8211; רוטשילד, וממשיכים ברח' יפו ולאחר כ- 500 מ' בצד שמאל נראה את בית הקברות הישן של חיפה. משער הכניסה פונים ימינה עד לקצה בית הקברות.</p>",32.825687,34.9894133
134,ר' אברהם אבן עזרא,"ר' אברהם אבן עזרא נולד בשנת ד' תתמ&quot;ט (1089) בסראגוסה, נודע בפירושו למקרא, ואף חיבר ספרים שונים בשירה, לשון פילוסופיה ועוד.. נדד בין הרבה ארצות שונות. ונפטר בשנת ד' תתקכ&quot;ד (1164), עולים לקברו בא' באדר. &nbsp;",גליל מערבי,כאבול,"<p>נוסעים בכביש 70, וכ- 4.5 ק&quot;מ דרומית לצומת אחיהוד פונים מזרחה בכביש שנכנס לכפר כבול, לאחר כ- 3 ק&quot;מ בתוך הכפר פונים ימינה ומיד שמאלה במעלה הכפר, לאחר כ- 570 מ' בצד ימין נראה מבנה עתיק עם כיפה ובו מצבת ציונו של ר' אברהם אבן עזרא.</p>",32.866637,35.217826
133,ר' אברהם דוב מאבריטש,"ר' אברהם דוב היה רב חסידי ומחבר הספר &quot;בת עין&quot;. בנו של ר' דוד מגיד מישרים, נישא לביתו של רבי נתן נטע מאבריטש. היה תלמידו של ר' מנחם נחום מצרנובל, לימים מילא את מקום אביו כאב בית דין&hellip;",גליל עליון,צפת,"<p class=""MsoNormal"" dir=""rtl"" style=""margin: 0cm 0cm 10pt;"">ליד התחנה המרכזית, בכביש הכניסה לצפת, פונים ימינה לרח' ירושלים, ומשם פונים שוב ימינה לרח' האר&quot;י, שם בסוף הרח' ישנם מדרגות היורדות אל בית הקברות.</p>",32.970491,35.49236
132,ר' אברהם הכהן מקאליסק,"ר' אברהם הכהן בנו של רבי אלכסנדר, מתלמידי המגיד ממזריטש וממנהיגי עליית החסידים לארץ ישראל. לאחר פטירת הרב מנחם מנדל מוויטבסק עמד בראש היישוב החסידי בארץ ישראל. מסופר בספר 'שערי תשובה' מעשה מופלא שהיה בתקופתו: בתקופה שהיה עצירת&hellip;",גליל תחתון,טבריה,"<p>נכנסים לטבריה ומגיעים לרח' הבנים, בכיכר רבין פונים שמאלה לרח' הירדן וימינה לרח' יהודה הלוי עד לרח' ברנר. משם נוסעים שמאלה ולאחר מכן ימינה לרח' השילוח, ולאחר כ- 0.5 ק&quot;מ פונים שמאלה לרח' אחוה, ואח&quot;כ ימינה לסוף רח' הנוטר עד לחניית בית הקברות. ושם בחלקה הישנה מצד ימין בחלקת תלמידי הבעש&quot;ט נמצא הקבר</p>",32.78129,35.5435546
131,ר' אליהו הכהן גאון,"ר' אליהו היה בנו של ר' שלמה, ראש ישיבת 'גאון יעיקב' בירושלים ולאחר מכן בעיר צור. נפטר בשנת ד' תתמ&quot;ג 1083. &nbsp; (התמונה באדיבות אתר 'צדיקים')",גליל עליון,דלתון,"<p><span dir=""rtl"" lang=""HE"" style=""line-height: 115%; font-family: 'Arial','sans-serif'; font-size: 11pt; mso-ascii-font-family: Calibri; mso-ascii-theme-font: minor-latin; mso-fareast-font-family: Calibri; mso-fareast-theme-font: minor-latin; mso-hansi-font-family: Calibri; mso-hansi-theme-font: minor-latin; mso-bidi-theme-font: minor-bidi; mso-ansi-language: EN-US; mso-fareast-language: EN-US; mso-bidi-language: HE;""><span style=""color: #000000;"">נכנסים לדלתון מצפון לצפת, מכביש 886. עוברים את המושב עד לשער האחורי, ומשם ממשיכים בדרך עפר עד לבית העלמין, בצד שמאל של הדרך ממשיכים בשביל בטון עד לראש ההר הסמוך, כ- 350 מ' ללא שביל ברור. ובראש ההר נמצא קברו של ר' יוסי הגלילי, אשר בסמוך אליו נמצא קברו של ר' אליהו הכהן גאון.</span></span></p>",33.016553,35.489911
129,ר' אליעזר בן יעקב,"ר' אליעזר בן יעקב (השני) היה תנא שחי בדור הרביעי. היה בין חכמי אושא, מתלמידיו האחרונים של ר' עקיבא.",גליל תחתון,כפר חנניה,"<p dir=""rtl"">בצומת חלפתא, צומת הכבישים 85 ו- 806 פונים לכפר חנניה, כ- 350 מ' ממזרח לצומת, מצד שמאל של הכביש ישנו אילן גדול אשר מתחתיו מבנה קטן ובו מדרגות היורדות למערה ששם קבור ר' אליעזר בן יעקב, ויש אשר אומרים שאף אביו ר' יעקב.</p>
<p dir=""rtl""> </p>",32.921316,35.421351
130,ר' אליעזר בן ר' יוסי הגלילי,"ר' אליעזר בנו של ר' יוסי הגלילי, היה תנא שחי בדור הרביעי לתנאים, הדור שלאחר מרד בר כוכבא, היה מכחמי אושא. דבריו הובאו פעם אחת בלבד במשנה, אך מצוי הוא בברייתות, בשני התלמודים ובמדרשים. דברי התורה שלו בהלכה&hellip;",גליל עליון,דלתון,"<p>נכנסים לדלתון מצפון לצפת, מכביש 886. עוברים את המושב עד לשער האחורי, ומשם ממשיכים בדרך עפר עד לבית העלמין, בצד שמאל של הדרך ממשיכים בשביל בטון באורך כ- 70 ס&quot;מ המוביל לציון.</p>",33.016553,35.489911
128,ר' אריה יהודה לייב סגל מוולטשיסק,"ר' אריה יהודה לייב  היה בנו של ר' שלום. מתלמידי המגיד ממזריטש. היה אב&quot;ד בוולטשיסק, ובסוף ימיו עבר לגור בצפת. נפטר בכ&quot;ז ניסן תקע&quot;ו 1816, ביקש כי יהיה חרות על מצבתו תואר יחיד והוא 'אוהב תורה'. &nbsp;",גליל עליון,צפת,"<p>ליד התחנה המרכזית, בכביש הכניסה לצפת, פונים ימינה לרח' ירושלים, ומשם פונים שוב ימינה לרח' האר&quot;י, שם בסוף הרח' ישנם מדרגות היורדות אל בית הקברות.</p>
",32.9697997,35.489746
127,ר' דוד שלמה אייבשיץ מסראקע,"ר' דוד שלמה היה אדמו&quot;ר, פוסק ורב בכמה קהילות בגליציה ובסרביה. עלה לארץ ישראל בשנת תקס&quot;ט ונתיישב בעיר צפת. נפטר בכ&quot;ב חשוון בשנת תקע&quot;ד. &nbsp;",גליל עליון,צפת,"<p>ליד התחנה המרכזית, בכביש הכניסה לצפת, פונים ימינה לרח' ירושלים, ומשם פונים שוב ימינה לרח' האר&quot;י, שם בסוף הרח' ישנם מדרגות היורדות אל בית הקברות</p>
",32.9697997,35.489746
126,ר' דוסא בן הרכינס,"ר' דוסא בן הרכינס היה תנא בדור הראשון שלאחר תקופת הזוגות. חי בדורו של רבן יוחנן בן זכאי, האריך ימים עד לאחר חורבן בית המקדש. &nbsp; &nbsp;",גליל עליון,צפת,"<p>ליד התחנה המרכזית, בכביש הכניסה לצפת, פונים ימינה לרח' ירושלים, ומשם פונים שוב ימינה לרח' האר&quot;י, לאחר כ- 100 מ' פונים שמאלה לרח' הפלמ&quot;ח, הרח' עולה במעלה ההר ולפני שהרח' פונה שמאלה, רואים בצד שמאל בתוך גן קטן את מערת ר' דוסא.</p>",32.966479,35.494996
125,ר' הלל האמורא,"ר' הלל האמורא היה מאמוראי בבל בדור החמישי והשישי, מתלמידי רבא ורב כהנא.",גליל עליון,דלתון,"<p>בכניסה לדלתון מכביש 886, עוברים את כל המושב על לשער האחורי, ושם בדרך עפר ממשיכים עד לבית העלמין, פונים שמאלה ומגיעים לשער מימין, ממנו ישנו שביל המוליך אל הציון של ר' הלל.</p>",33.023221,35.499947
124,ר' זאב וולף מטשרני אוסטראה,ר' זאב וולף בנו של ר' נפתלי צבי. היה מתלמידי המגיד ממעזריטש. כיהן כרב וכאדמו&quot;ר בעיר טשרני אוסטראה ובקופיל הסמוכה. בשנת תקנ&quot;ח (1798) עלה לארץ ישראל וחי בה 25 שנה עד לפטירתו. ר' מנחם מנדל מקאסוב היה לתלמידו&hellip;,גליל תחתון,טבריה,"<p class=""MsoNormal"" dir=""rtl"" style=""margin: 0cm 0cm 10pt;"">נכנסים לטבריה ומגיעים לרח' הבנים, בכיכר רבין פונים שמאלה לרח' הירדן וימינה לרח' יהודה הלוי עד לרח' ברנר. משם נוסעים שמאלה ולאחר מכן ימינה לרח' השילוח, ולאחר כ- 0.5 ק&quot;מ פונים שמאלה לרח' אחוה, ואח&quot;כ ימינה לסוף רח' הנוטר עד לחניית בית הקברות. ושם בחלקת תלמידי הבעש&quot;ט נמצא ציונו של ר' זאב וולף.</p>",32.78129,35.5435546
123,ר' זכריה בן הקצב,ר' זכריה היה תנא בדור הראשון. מחכמי ארץ ישראל בתקופת חורבן בית שני. &nbsp; &nbsp;,גליל תחתון,כפר חנניה,"<p>בצומת חלפתא, צומת הכבישים 85 ו- 806 פונים לכפר חנניה, כ- 350 מ' ממזרח לצומת, מצד שמאל של הכביש, ישנו אילן גדול אשר מתחתיו חצר ומבנה קטן, פונים שמאלה לפני החצר בשביל בטון, עולים בשביל כ- 10 דק' הליכה, סמוך לראש ההר נמצאת המערה של ר' זכריה.</p>",32.925149,35.420745
122,ר' חייא,"ר' חייא (נקרא אף ר' חייא הגדול או ר' חייא רבה) נחשב לאחד מאחרוני התנאים. אביהם של יהודה וחזקיה. נולד וחי בבבל, עלה לארץ ישראל על מנת ללמוד מפיו של רבי יהודה הנשיא. ערך יחד עם תלמידו ר'&hellip;",גליל תחתון,טבריה,"<p>נכנסים לטבריה מכביש 90 ומגיעים לרח' הבנים, פונים שמאלה בכיכר רבין לעבר רח' הירדן, ולאחר מכן ימינה לרח' יהודה הלוי. לאחר העיקול ימינה, ישנם מדרגות, בצד שמאל, העולות עד לקברו של ר' חייא ובניו.</p>",32.786059,35.532207
94,ר' יהודה בן בבא,ר' יהודה בן בבא היה תנא בדור השלישי. מעשרת הרוגי מלכות. היה חברו הטוב של ר' עקיבא. בניגוד לגזירות המלכות היה סומך רבנים ומלמד תורה בעמק שבין אושא לשפרעם. &nbsp;,חיפה ועמקים,שפרעם,"<p>מכביש 70, בצומת סומך, פונים מזרחה בכביש 79 לעבר כיוון צומת המוביל. פונים ימינה לאחר כ- 1.2 ק&quot;מ, בדרך עפר בירידה תלולה, ולאחר כ- 350 מ' מגיעים אל מערת ר' יהודה בן בבא.</p>",32.805765,35.169971
95,ר' יהודה בר אלעאי,"ר' יהודה היה תנא בדור הרביעי. בנו ותלמידו של רבי אלעאי, מתלמידי ר' עקיבא. מושבו היה באושא. מסופר בתלמוד על ויכוח משולש בנושא הרומאים שבו היה שותף. ר' יהודה שיבח את הרומאים, רבי יוסי שתק ור' שמעון בר&hellip;",גליל עליון,עין זיתים,"<p>נוסעים בכביש 89, ופונים מצומת עין זיתים צפונה אל עבר כביש 886. לאחר נסיעה של כ- 1 ק&quot;מ מגיעים לציונו של ר' יהודה, מימין לכביש.</p>
<p> </p>",32.992698188522,35.502529381042
93,ר' יהודה הנשיא,"ר' יהודה היה גדול התנאים בדור החמישי, נשיא הסנהדרין ועורך המשנה. נקרא אף 'רבי' ו'רבנו הקדוש'. בנו של רבן שמעון בן גמליאל ונצר למשפחת הלל הזקן. למד תורה מפי חמשת תלמידי ר' עקיבא: רשב&quot;י, ר' אלעזר, ר' יוסי,&hellip;",גליל תחתון,ציפורי,"<p>פונים בצומת המוביל על כביש 79 לדרום- מזרח לכיוון נצרת. לאחר כ- 4 ק&quot;מ פונים שמאלה לציפורי. ולאחר כ- 3.5 ק&quot;מ מסתעפת דרך עפר ימינה לעבר הר הושעיה, ומיד לאחר מכן שמאלה אל ציון ר' יהודה הנשיא, השוכן במבנה קטן עם כיפה</p>",32.703727,35.131534
119,רב אשי,"רב אשי היה מגדולי האמוראים ומראשי הדור השישי של אמוראי בבל. היה מעורכי התלמוד הבבלי. עמד בראש ישיבת סורא במשך שישים שנה. נולד ביום שבו נפטר רבא בשנת ד' קי&quot;א. היה עשיר גדול ורב השפעה, עליו אומרת הגמרא&hellip;",,,"<p>ציונו של רב אשי נמצא בסמוך לקיבוץ מנרה. פונים צפונה מצומת ישע בכביש 886, ולאחר כ- 15 ק&quot;מ מגיעים לכניסה לקיבוץ מנרה, ממשיכים עוד כ- 150 מ' ופונים שמאלה בכביש צר. לאחר כ- 1.2 ק&quot;מ פונים שמאלה במעלה גבעה. לאחר כ- 250 מ', מימין, בראש גבעה קטנה הנקראת 'אל עובד' נמצא הציון.</p>",33.20967,35.542185
118,רב דימי מנהרדע,"רב דימי מנהרדע היה אמורא בבלי בדור הרביעי לאמוראי בבל, מגדולי חכמי ישיבת נהרדע, חי בזמנם של אביי ורבא, היה מספר שנים ראש ישיבת פומבדיתא. &nbsp;",השומרון,אבנית,"<p class=""MsoNormal"" dir=""rtl"" style=""margin: 0cm 0cm 10pt;"">עולים בכביש 8900 מראש פינה לצפת, מול כביש הכניסה לצפת פונים צפונה לכיוון ביריה, מגיעים להסתעפות כבישים כשכיכר באמצעה, בכביש השלישי בכיכר פונים ימינה, ולאחר כ- 950 ק&quot;מ מגיעים למחסום שטח צבאי, פונים שמאלה לפני השער בדרך עפר, ולאחר כ- ק&quot;מ מגיעים אל מבנה גדול עם כיפה בצד ימין של הדרך, ובהמשך השביל רואים את מערת רב דימי</p>",32.993197,35.517045
117,רב הונא ריש גלותא,"רב הונא היה מגדולי אמוראי בבל בדור השני. מגדולי תלמידי רב ושמואל. לאחר פטירתו של רב ירש רב הונא את מקומו כראש ישיבת סורא, ושימש בתפקיד זה במשך כארבעים שנה, היו לו מאות תלמידים, מהם היו אמוראי הדור&hellip;",גליל תחתון,טבריה,"<p>נכנסים לטבריה ומגיעים לרח' הבנים, בכיכר רבין פונים שמאלה לרח' הירדן וימינה לרח' יהודה הלוי ובהתעקלות הרחוב ימינה ישנם מצד שמאל מדרגות העולות עד לקברו של רב הונא.</p>
",32.786059,35.532207
116,רב המנונא סבא,רב המנונא סבא היה אמורא בבלי בדור השני והשלישי לאמוראי בבל. מתואר כאישיות נפלאה ובקי גדול בסודות התורה. &nbsp;,גליל עליון,מירון,"<p>לפני הכניסה למושב מירון, מעל החניון, ליד השביל המוליך לקברו של שמאי, נמצאת מערה ובה ציונו של רב המנונא סבא.</p>
",32.976872,35.438764
98,רב חננאל,רב חננאל היה אמורא בבלי בדור השני לאמוראים. תלמידו המובהק של רב. &nbsp;,גליל תחתון,טבריה,"<p class=""MsoNormal"" dir=""rtl"" style=""margin: 0cm 0cm 10pt;"">נכנסים לטבריה מכביש 90 ומגיעים לרח' הבנים, בכיכר רבין פונים שמאלה לרח' הירדן וימינה לרח' העמקים, אשר בסופו רואים בצד ימין חצר המוקפת גדר, שם מקום קברו של רב חננאל.</p>",32.789062466118,35.53638517791
55,רב כהנא,"רב כהנא היה מאמוראי בבל בדור הראשון לאמוראים. תלמידו של רב וחברו של רב אסי. היה מגדולי חכמי בבל. פעם אחת הרג רב כהנא מלשין בבבל, אמר לו רב כי יברח לארץ ישראל ויקבל על עצמו שלא יקשה&hellip;",גליל תחתון,טבריה,"<p>מכביש 90 נכנסים לטבריה. נוסעים בשדרות קפלן עד הכניסה הראשית של מלון 'גני חמת' שמימין לכביש. נכנסים לשטח המלון, ופונים לאחר כ- 100 מ' ימינה אל דרך עפר, פונים שמאלה בהסתעפות הדרכים, לאחר כ- 200 מ' פונים ימינה, ומגיעים לאחר כ- 1.5 ק&quot;מ אל מבנה שעל מערת רב כהנא.</p>",32.770007,35.545559
30,רב סמא,רב סמא היה מאמוראי בבל בדור השביעי לאמוראים. תלמידו של רב אשי. לאחר פטירתו של  רב רחומי מונה לראש ישיבת פומבדיתא. &nbsp; &nbsp;,גליל עליון,עכברה,"<p>מכביש 89 נכנסים לצפת לכיוון בית החולים זיו, כ- 100 מ' לפני כביש הכניסה לביה&quot;ח פונים ימינה לכיוון כפר עכברה, לאחר כ- 3 ק&quot;מ פונים שמאלה בדרך עפר והיורדת לתוך הכפר, מגיעים להסתעפות דרך עפר ופונים מעט שמאלה בדרך ההר, עוקפים את ההר ויורדים אל הנחל הנמצא בצידו השני של ההר, שם נובע מעיין קטן, משם עולים עם הנחל, ופונים שמאלה בשביל תלול אשר מגיע אל קברו של עקביא בן מהללאל ואדמון. משם פונים דרומה, ולאחר כ- 1 ק&quot;מ רואים מערה גבוהה עם נקיקים רבים בסביבותיה, זהו מקום קברו של רב סמא.</p>
<p> </p>",32.934114,35.507538
20,רבא,"רבא היה מגדולי אמוראי בבל בדור הרביעי לאמוראים.  נולד בעיר מחוזא שליד החידקל, לאביו האמורא רב יוסף בר חמא. נאמר על זמן לידתו בתלמוד: 'כשמת רבי נולד רב יהודה, כשמת רב יהודה נולד רבא, כשמת רבא נולד רב&hellip;",השומרון,אבנית,"<p>עולים בכביש 8900 מראש פינה לצפת, מול כביש הכניסה לצפת פונים צפונה לכיוון ביריה, מגיעים להסתעפות כבישים כשכיכר באמצעה, בכביש השלישי בכיכר פונים ימינה, ולאחר כ- 950 ק&quot;מ מגיעים למחסום שטח צבאי, פונים שמאלה לפני השער בדרך עפר, ולאחר כ- 1 ק&quot;מ מגיעים אל מבנה גדול עם כיפה בצד ימין של הדרך, בהמשך השביל נמצאת מערת אביי ורבא.</p>",32.998958,35.515299
115,רבי אושעיא איש טיריא,"רבי אושעיא איש טיריא היה אמורא שחי בדור הרביעי, נקרא ע&quot;ש עירו טיריא, נולד ביום שנפטר רב אבין, וקראו עליו: &quot;וזרח השמש ובא השמש&quot;. עשה לעצמו מלבוש ממין צמר אחד, שלא יחשדו בו אנשים שלקח מהבגדים שנתנו לו&hellip;",גליל עליון,פקיעין החדשה,"<p>פונים דרומה בכביש 89 לכיוון כביש 864, כ- 500 מ' לאחר כביש הכניסה לפקיעין ישנו בצד ימין מצבה המוקפת בגדר אבנים, שם מקום קבורתו.</p>",32.992246,35.309131
113,רבי אלעזר בן ערך,"ר' אלעזר בן ערך היה תנא בדור ראשון שלאחר החורבן. מתלמידי רבן יוחנן בן זכאי. אבא שאול שיבח אותו והיה אומר עליו: 'אם יהיו כל חכמי ישראל בכף מאזניים ורבי אליעזר בן הורקנוס אף עימהם, ורבי אלעזר בן&hellip;",גליל עליון,עלמה,"<p>פונים צפונה בצומת עין זיתים אל עבר כביש 886, עוברים את מושב כרם בן זמרה, חולפים על פני מסעף שמאלה לכביש 8967, ולאחר מכן פונים שמאלה בדרך עפר. פונים ימינה לאחר כ- 80 מ', ולאחר כ- 150 מ' מגיעים לציון, אשר נמצא בתוך סככה גדולה.</p>",33.054848,35.489892
112,רבי אמי ורבי אסי,"רבי אמי ורבי אסי היו אמוראים בדור השלישי של האמוראים. מתלמידי רבי יוחנן, והיו ראשי ישיבה בטבריה. לאחר מות רבם ר' יוחנן קבלו את הכינוי: 'כהני חשיבי דארץ ישראל'.",גליל תחתון,טבריה,"<p>נכנסים לטבריה מכביש 90 ומגיעים לרח' הבנים, פונים שמאלה בכיכר רבין לעבר רח' הירדן, ולאחר מכן ימינה לרח' רבן יוחנן בן זכאי, לאחר כ- 200 מ' רואים בצד ימין חצר גדולה אשר בה נמצא קברו של הרמב&quot;ם, ושם אף קבריהם של רבי אמי ורבי אסי.</p>",32.789767,35.537541
111,רבי דוד הנגיד,"ר' דוד בנו של אברהם בן הרמב&quot;ם, נולד בקהיר בכ&quot;ד טבת ד' תתקע&quot;ג, לאחר פטירת אביו בשנת תתקצ&quot;ח נתמנה לנגיד, ושימש כנגיד של קהילות מצרים, סוריה וארץ ישראל. כיהן בתפקיד זה בהפסקה של 5 שנים עד לפטירתו. כשהודח&hellip;",גליל תחתון,טבריה,"<p>נכנסים לטבריה מכביש 90 ומגיעים לרח' הבנים, פונים שמאלה בכיכר רבין לעבר רח' הירדן, ולאחר מכן ימינה לרח' רבן יוחנן בן זכאי, לאחר כ- 200 מ' רואים בצד ימין חצר גדולה אשר בה נמצא קברו של הרמב&quot;ם, לידו קבור ר' דוד.</p>",32.789767,35.537541
110,רבי זירא,"ר' זירא (המכונה בתלמוד הירושלמי ר' זעירא) היה מגדולי אמוראי בבל בדור השלישי. עלה לארץ ישראל והתיישב בטבריה, זכה לאריכות ימים ונפטר בשיבה טובה.",,,"<p dir=""rtl"">מדרך מנחם בגין בטבריה פונים מערבה בצומת כפר חיטים לעבר כביש 7717. ולאחר כ- 3 ק&quot;מ פונים ימינה למושב ארבל, פונים שמאלה לאחר כ- 1 ק&quot;מ, ממשיכים בנסיעה עד לאחר הבתים האחרונים של המושב, ושם נמצא ציונו של ר' זירא.</p>
<p dir=""rtl""> </p>",32.813585,35.475646
109,רבי זריקא,"ר' זריקא היה אמורא בדור השלישי. תלמידם של רב הונא, רב יהודה ורב המנונא, ר' יוחנן וריש לקיש. &nbsp;",גליל עליון,עכברה,"<p>מכביש 89 נכנסים לצפת לכיוון בית החולים זיו, כ- 100 מ' לפני כביש הכניסה לביה&quot;ח פונים ימינה לכיוון כפר עכברה, לאחר כ- 3 ק&quot;מ פונים שמאלה בדרך עפר והיורדת לתוך הכפר, מגיעים להסתעפות דרך עפר ופונים מעט שמאלה בדרך ההר, עוקפים את ההר ויורדים אל הנחל הנמצא בצידו השני של ההר, שם נובע מעיין קטן, משם עולים עם הנחל, ופונים שמאלה בשביל תלול שעולה לציונו של עקביא בן מהללאל ואדמון, משם פונים דרומה לרגלי צוקי הסלע,ולאחר כ- 1 ק&quot;מ רואים מערה וסביבותיה נקיקים, שם נמצא קברו של רבי זריקא.</p>",32.934114,35.507538
108,רבי חוצפית המתורגמן,"רבי חוצפית המתורגמן היה תנא בדור השלישי. נקרא כך מכיוון שידע לשונות רבות והיה המתורגמן של רבן גמליאל. זכה לאריכות ימים, והיה מעשרת הרוגי מלכות בגיל 130. &nbsp; &nbsp;",גליל עליון,צפת,"<p class=""MsoNormal"" dir=""rtl"" style=""margin: 0cm 0cm 10pt;"">ליד התחנה המרכזית, מכביש הכניסה לצפת, המתחבר עם רח' ירושלים, ממשיכים עד לשער התחתון של בית הקברות. לפני הכניסה לשער ממשיכים ישר בדרך עפר, ולאחר כ- 60 מ' פונים שמאלה, לאחר כ- 250 מ' מגיעים לאנדרטה המוקפת בגדר אבן, ולאחריה פונים ימינה בשביל שיורד בין הסלעים, ומגיעים אל ציונו של רבי חוצפית.</p>",32.970078,35.475207
102,רבי חלפתא,"ר' חלפתא היה תנא בדור השלישי לתנאים. חי בסוף ימי בית שני ולאחר החורבן. התגורר בציפורי. נקרא אף אבא חלפתא, היה אביהם של ר' יוסי ור' שמעון.",גליל תחתון,כפר חנניה,"<p><span dir=""rtl"" lang=""HE"" style=""line-height: 115%; font-family: 'Arial','sans-serif'; font-size: 11pt; mso-ascii-font-family: Calibri; mso-ascii-theme-font: minor-latin; mso-fareast-font-family: Calibri; mso-fareast-theme-font: minor-latin; mso-hansi-font-family: Calibri; mso-hansi-theme-font: minor-latin; mso-bidi-theme-font: minor-bidi; mso-ansi-language: EN-US; mso-fareast-language: EN-US; mso-bidi-language: HE;""><span style=""color: #000000;"">נוסעים בכביש 85, ופונים דרומה בצומת חלפתא לעבר כביש 806. לאחר כ- 150 מ', בצד ימין, רואים חצר המוקפת גדר, ושם ישנם שתי מצבות. אלו המצבות של ר' חלפתא ובנו ר' יוסי. </span></span></p>",32.9103813947,35.4178228995
100,רבי חנינא בן דוסא,רבי חנינא היה תנא מהדור הראשון. התגורר בעיירה ערב שבגליל התחתון. למד עם רבן יוחנן בן זכאי. &nbsp; &nbsp;,גליל תחתון,עראבה,"<p>מכביש 70 פונים מזרחה בצומת יבור אל כביש 805. ממשיכים אחרי סחנין ומגיעים לתחנת דלק שבכפר עראבה, כ- 150 מ' אחרי תחנת הדלק פונים ימינה ונוסעים עד הסוף, ושם פונים שמאלה, ולאחר כ- 100 מ' רואים בצד ימין מדרגות המגיעות עד למערת ר' חנינא בן דוסא.</p>",32.85199,35.341087
97,רבי חנניה בן עקשיא,"רבי חנניה בן עקשיא היה תנא בדור הרביעי. מסופר על ר' חנניה  שלא היו לו ילדים כל ימי חייו. ולפני פטירתו הוא אמר לה', ריבונו של עולם כלום עשיתי לכבודי, כל ימי חיי הקדשתי רק כדי לקדש שמך ולהגדיל תורה&hellip;",גליל תחתון,כפר חנניה,"<p>בצומת חלפתא, צומת הכבישים 85 ו- 806 פונים לכפר חנניה, כ- 350 מ' ממזרח לצומת, מצד שמאל של הכביש ישנו אילן גדול אשר מתחתיו מבנה קטן, פונים שמאלה לפני החצר בשביל בטון, ולאחר כ- 100 מ' מגיעים אל מערת ר' חנניה.</p>
<p> </p>",32.921296,35.421674
96,רבי טרפון,"רבי טרפון היה תנא מהדור השני. מתלמידי רבן יוחנן בן זכאי, ומתלמידי בית שמאי. מסופר על אימו של רבי טרפון שירדה לטייל לתוך חצרה בשבת. נפסק הסנדל שברגליה, ולא יכלו להביא לה סנדל אחר בגלל איסור הוצאה בשבת.&hellip;",גליל עליון,קדיתא,"<p> בגבול יער עין זיתים, מכביש 89, מסתעפת הדרך צפונה, ולאחר כ- 2 ק&quot;מ מצד שמאל ישנם מדרגות העולות אל מצבת רבי טרפון.</p>",33.014633998801,35.455211277679
89,רבי יהודה בן תימא,ר' יהודה היה תנא שלא נודע זמנו. שמו מוזכר במשנה ובברייתות. &nbsp;,גליל עליון,דלתון,"<p>מכביש 886 נכנסים למושב דלתון, נוסעים עד לשער האחורי של המושב, ומשם בדרך עפר ממשיכים כ- 780 מ' עד לבית העלמין. משם פונים שמאלה ומגיעים לשער בגדר שמימין, ממשיכים בדרך העפר, פונים ימינה לאחר כ- 450 מ' אל דרך היורדת לתוך המטעים. בפנייה הראשונה שיש פונים ימינה, וממשיכים בדרך הצמודה לקצה המטע עד לסוף המטע. עוברים שער בגדר, עולים בשביל במעלה ההר עד לציון ר' יהודה בן תימא.</p>",33.026134,35.499238
92,רבי יהודה בר חייא,"ר' יהודה היה מאמוראי ארץ ישראל בדור הראשון. בנו של ר' חייא, אחיו התאום של חזקיה. היה רגיל לבוא מידי ערב שבת אל ר' ינאי חותנו ולשאול לשלומו. היה ר' ינאי נוהג לשבת על מקום גבוה ע&quot;מ שיוכל&hellip;",גליל תחתון,טבריה,"<p>נכנסים לטבריה מכביש 90 ומגיעים לרח' הבנים, פונים שמאלה בכיכר רבין לעבר רח' הירדן, ולאחר מכן ימינה לרח' יהודה הלוי. לאחר העיקול ימינה, ישנם מדרגות, בצד שמאל, העולות עד לקברו של ר' חייא ובניו.</p>",32.786059,35.532207
90,רבי יהודה הלוי,"ר' יהודה היה בנו של ר' שמואל, נולד בשנת ד' תתל&quot;ה (1075) בעיר טולדו שבצפון ספרד. היה מגדולי המשוררים של ימי הביניים, נוסף על כך אף עסק ברפואה. נפטר בשנת ד' תתקל&quot;ח (1178) בדרכו לארץ ישראל או בא&quot;י&hellip;",גליל מערבי,כאבול,"<p>נוסעים בכביש 70, וכ- 4.5 ק&quot;מ דרומית לצומת אחיהוד פונים מזרחה בכביש שנכנס לכפר כבול, לאחר כ- 3 ק&quot;מ בתוך הכפר פונים ימינה ומיד שמאלה במעלה הכפר, לאחר כ- 500 מ' נמצא בצד שמאל מבנה עתיק אשר בו נמצאת המצבה של ר' יהודה הלוי.</p>",32.866743,35.217826
86,רבי יהושע בן חנניה,"רבי יהושע היה תנא בדור השני. משבט לוי. ראש ישיבה בפקיעין שבגליל. מתלמידי רבן יוחנן בן זכאי. התמחה בנגינה וזכה לשורר בבית המקדש. עוד בהיותו תינוק, הייתה אימו מוליכה עריסתו לבית הכנסת על מנת שיתדבקו אוזניו בדברי תורה,&hellip;",גליל עליון,צפת,"<p class=""MsoNormal"" dir=""rtl"" style=""margin: 0cm 0cm 10pt;"">ליד התחנה המרכזית, בכביש הכניסה לצפת, פונים ימינה לרח' ירושלים, ומשם פונים שוב ימינה לרח' האר&quot;י, בסוף הרח' ישנם מדרגות היורדות עד לבית הקברות. בסיום המדרגות ישנו שביל הממשיך ישר ומגיע אל ציונו של האר&quot;י. משם פונים שמאלה בשביל עד למערה.</p>",32.968142,35.488666
87,רבי יהושע דסכנין,"רבי יהושע דסכנין היה אמורא בדור הרביעי לאמוראי ארץ ישראל. נקרא על שם מקום הולדתו ומגוריו- כפר סכנין שבגליל התחתון. היה תלמידו של ר' לוי, ומחכמי האגדה הבולטים. &nbsp;",גליל תחתון,סח'נין,"<p>מכביש 70 פונים מזרחה בצומת יבור אל כביש 805 עד לכפר סחנין. שם פונים שמאלה ועולים ברח' הראשי במעלה הכפר עד לסופו, פונים שמאלה לסימטה אשר בסופה פונים שוב שמאלה, נוסעים עד הסוף, ובצל אילן עתיק שוכנת מערת רבי יהושע.</p>",32.865091,35.300089
82,רבי יוחנן,רבי יוחנן היה מגדולי אמוראי ארץ ישראל בדור השני. ראש ישיבת טבריה במשך כשמונים שנה. היה עשיר גדול אך את רוב נכסיו מכר על מנת ללמוד תורה. מסופר כי עבר ר' יוחנן עם תלמידו ר' חייא בר אבא&hellip;,גליל תחתון,טבריה,"<p class=""MsoNormal"" dir=""rtl"" style=""margin: 0cm 0cm 10pt;"">נכנסים לטבריה מכביש 90 ומגיעים לרח' הבנים, בכיכר רבין פונים שמאלה לרח' הירדן וימינה לרח' העמקים, אשר בסופו רואים בצד ימין חצר המוקפת גדר, שם מקום קברו של רבי יוחנן.</p>",32.791929,35.531939
80,רבי יוחנן דקציון,ר' יוחנן דקציון נקרא כך ע&quot;ש עירו. חי במאה השלישית או הרביעית. &nbsp;,גליל עליון,חורבת קציון,"<p class=""MsoNormal"" dir=""rtl"" style=""margin: 0cm 0cm 10pt;"">בכביש 90 נוסעים צפונה, פונים שמאלה לאחר צומת מחניים בדרך עפר, לאחר כ- 1.5 ק&quot;מ פונה הדרך ימינה, ומסתעפת ממנה דרך חדשה, עולים בדרך זו, לאחר כ- 2.2 ק&quot;מ פונים ימינה, ולאחר כ- 2 ק&quot;מ מגיעים לחורבת קציון, בצד שמאל, במורד הגבעה, נמצאת מערת ר' יוחנן.</p>",33.070961751123,35.561070534607
81,רבי יוחנן הסנדלר,"רבי יוחנן היה תנא בדור הרביעי. נולד באלכסנדריה שבמצרים. מצאצאי רבן גמליאל. תלמידו של ר' עקיבא. עולים אל קברו בכ&quot;ט בתמוז. מצוטט במסכת אבות כי היה ר' יוחנן אומר: 'כל כנסיה שהיא לשם שמים סופה להתקיים, ושאינה לשם&hellip;",גליל עליון,מירון,"<p>עולים ימינה בכביש מהרחבה שלפני ציון רשב&quot;י, פונים שמאלה בסיבוב חד עם הכביש, ומשם ממשיכים עד לקברו של רבי יוחנן.</p>
",32.984257,35.436919
77,רבי יונתן בן עוזיאל,"ר' יונתן בן עוזיאל היה תנא בדור הראשון לתנאים. מתלמידיו החשובים של הלל.היה גדול בלימוד התורה ובחכמתה. נוהגים לעלות אל קברו כסגולה למציאת זיווג, בעקבות פירוש רש&quot;י לדברי התלמוד: 'כל מי שאין מכיר משפחתו ושבטו נפנה לשם, והיא&hellip;",גליל עליון,עמוקה,"<p>נוסעים בכביש 89 מכיוון ראש פינה לצפת, פונים צפונה מול כביש הכניסה לצפת, לכיוון בירייה, לאחר כ- 450 מ' מגיעים להסתעפות עם כיכר, פונים ימינה בכביש השלישי בכיכר, ממשיכים בדרך עפר ישר, ולאחר כ- 150 מ' פונים ימינה לעמוקה, יורדים מהכביש לאחר כ- 2.5 ק&quot;מ אל דרך חדשה, ולאחר כ- 1.8 ק&quot;מ מגיעים למסעף, ממשיכים ישר, ולאחר כ- 1 ק&quot;מ מגיעים שוב למסעף, פונים ימינה כ- 400 מ' אל החניה שנמצאת ליד ציונו של ר' יונתן.</p>",32.9996243464,35.5263754551
76,רבי יוסי בן זימרא,"רבי יוסי בן זימרא היה תנא בדור השישי, מאחרוני התנאים ומראשוני האמוראים.היה בן דורו של ר' יהודה הנשיא, וביתו אף נישאה לבנו של ר' יהודה הנשיא.רוב מאמריו עוסקים באגדה, רובם נמסרו ע&quot;י תלמידו ר' אלעזר בן פדת.",גליל עליון,כרם בן זמרה,"<p><span dir=""rtl"" lang=""HE"" style=""line-height: 115%; font-family: 'Arial','sans-serif'; font-size: 11pt; mso-ascii-font-family: Calibri; mso-ascii-theme-font: minor-latin; mso-hansi-font-family: Calibri; mso-hansi-theme-font: minor-latin; mso-bidi-theme-font: minor-bidi; mso-fareast-font-family: Calibri; mso-fareast-theme-font: minor-latin; mso-ansi-language: EN-US; mso-fareast-language: EN-US; mso-bidi-language: HE;""><span style=""color: #000000;"">נכנסים למושב מכביש 889, מצפון לצומת עין זיתים. ממשיכים בכביש הראשי כ- 700 מ' עד שמגיעים לגשר קטן, בצד שמאל, ליד בתי המושב, נמצא קברו של רבי יוסי.</span></span></p>",33.043899540457,35.470115687805
75,רבי יוסי בן חלפתא,"ר' יוסי היה מגדולי התנאים בדור הרביעי. חי בציפורי שבגליל. מתלמידי ר' עקיבא, היה חבר של ר' יהודה ור' שמעון, רבו של ר' יהודה הנשיא. כתב את הברייתא 'סדר עולם'. התפרנס מעיבוד עורות. נסמך להוראה בידי ר' יהודה&hellip;",גליל תחתון,כפר חנניה,"<p>נוסעים בכביש 85, ופונים דרומה בצומת חלפתא לעבר כביש 806. לאחר כ- 150 מ', בצד ימין, רואים חצר המוקפת גדר, ושם ישנם שתי מצבות. אלו המצבות של ר' חלפתא ובנו ר' יוסי.</p>",32.920829,35.417265
73,רבי יוסי בן קיסמא,"ר' יוסי היה תנא בדור השלישי לתנאים. מובא מאמרו במשנה: 'פעם אחת הייתי מהלך בדרך ופגע בי אדם ואמר לי שלום, החזרתי לו שלום. אמר לי: רבי מאיזו עיר אתה? אמרתי לו: מעיר גדולה של חכמים וסופרים. אמר&hellip;",גליל עליון,מירון,"<p>עולים עם הכביש ימינה מהרחבה שלפני ציון הרשב&quot;י, ולאחר מכן פונים שמאלה, ממשיכים ישר בדרך עפר ופונים שמאלה לאחר כ- 80 מ' בשביל אל חורבת בית הכנסת העתיק של רשב&quot;י, משם ממשיכים בדרך עפר עוד כ- 200 מ' לבקעה קטנה כשבצדה הימני ישנם מערות קבורה, המערה האחרונה היא מערת ר' יוסי בן קיסמא.</p>",32.989986,35.438661
68,רבי יוסי בנאה (הבנאי),"רבי בנאה חי בדור הרביעי של התנאים. מסופר בתלמוד כי רבי בנאה היה נוהג לסמן מערות קבורה, על מנת שידע הציבור להימנע מטומאה, יש האומרים כי בעקבות כך הוא קרוי 'רבי בנאה'. חי בזמנו של התנא רבי מאיר.&hellip;",גליל עליון,צפת,"<p>ליד התחנה המרכזית, בכביש הכניסה לצפת, פונים ימינה לרח' ירושלים, ומשם פונים שוב ימינה לרח' האר&quot;י, בסוף הרח' ישנם מדרגות העולות אל עבר בית מדרש האר&quot;י, מחצר בית המדרש ישנם מדרגות המובילות אל ציונו של ר' יוסף בנאה.</p>
",32.993123,35.467889
74,רבי יוסי בר יעקב,"רבי יוסי בר יעקב היה תנא. מתלמידי ר' שמעון בר יוחאי. נפטר בזמן  האידרא רבא, כשהיה עם שאר החברייא. (היה מעשרת בני החברייא).",גליל עליון,מירון,"<p><b><span dir=""rtl"" lang=""HE"" style=""line-height: 115%; font-family: 'Arial','sans-serif'; font-size: 11pt; mso-ascii-font-family: Calibri; mso-ascii-theme-font: minor-latin; mso-hansi-font-family: Calibri; mso-hansi-theme-font: minor-latin; mso-bidi-theme-font: minor-bidi; mso-fareast-font-family: Calibri; mso-fareast-theme-font: minor-latin; mso-ansi-language: EN-US; mso-fareast-language: EN-US; mso-bidi-language: HE;""><span style=""color: #000000;"">: </span></span></b><span dir=""rtl"" lang=""HE"" style=""line-height: 115%; font-family: 'Arial','sans-serif'; font-size: 11pt; mso-ascii-font-family: Calibri; mso-ascii-theme-font: minor-latin; mso-hansi-font-family: Calibri; mso-hansi-theme-font: minor-latin; mso-bidi-theme-font: minor-bidi; mso-fareast-font-family: Calibri; mso-fareast-theme-font: minor-latin; mso-ansi-language: EN-US; mso-fareast-language: EN-US; mso-bidi-language: HE;""><span style=""color: #000000;"">כ- 3 ק&quot;מ לאחר היציאה מצפת (בכביש 89) לכיוון מירון, בצד ימין ישנה דרך עפר המגיעה אל מבנה בעל שתי כיפות, זהו ציון קבורתו של ר' יוסי.</span></span></p>",33.011632085493,35.485578349304
72,רבי יוסי דמן יוקרת,"ר' יוסי היה אמורא בדור השלישי או הרביעי לאמוראי ארץ ישראל. רבו של ר' יוסי בר אבין, שם מקומו 'יוקרת' השתבש כנראה, ואינו ידוע כיום. ר' יוסי שכר פועלים שיעבדו בשדה, ושהה מלהביא להם מזונות, אמרו הפועלים לבנו&hellip;",,,"<p> פונים מזרחה מצומת מירון, בכביש 89 לכיוון צפת. לאחר כ- 2.7 ק&quot;מ בצד שמאל ישנו מבנה עם מערת כוכים זהו מקום קבורתם של משפחת ר' יוסי דמן יוקרת, לאחר כ- 720 מ' ישנו שביל בצד ימין של הכביש, אשר מוביל אל חצר קטנה ושם נמצא קברו של ר' יוסי.</p>",32.994017,35.473618
71,רבי יוסי דפקיעין,"ר' יוסי דפקיעין היה תנא. נקרא כך ע&quot;ש מקומו. מסופר כי משנודע שנפטר ר' יוסי, פנה ר' אלעזר בן רשב&quot;י אל חבריו ואמר להם: 'חברייא, נלך ונגמל חסד לרימון שהיה מלא בכל, ורבי יוסי דפקיעין שמו, שהסתלק מן&hellip;",גליל עליון,פקיעין החדשה,"<p> פונים דרומה בכביש 89 לכיוון כביש 864, נוסעים עד הכניסה לפקיעין, ברחוב הראשי ממשיכים ישר לכיוון הכיכר המרכזית אל המעיין, משם יורדים בסמטאות עד לציון ר' יוסי. </p>
<p> </p>",32.989898,35.476431
70,רבי יוסי הגלילי,"ר' יוסי הגלילי היה מחשובי התנאים בדור השלישי ביבנה. חי בזמנם של ר' עקיבא ור' טרפון. שני בניו היו ר' אליעזר ור' חנינא. נאמר על ר' יוסי כי היה בכוחו להביא להורדת גשמים ע&quot;י התפילה. היה חכם חריף,&hellip;",גליל עליון,דלתון,"<p>נכנסים לדלתון מצפון לצפת, מכביש 886. עוברים את המושב עד לשער האחורי, ומשם ממשיכים בדרך עפר עד לבית העלמין, בצד שמאל של הדרך ממשיכים בשביל בטון באורך כ- 70 ס&quot;מ המוביל לציון ר' אליעזר בנו, עולים משם אל ראש ההר הסמוך ושם נמצא ציונו של ר' יוסי הגלילי.</p>",33.024512,35.497296
69,רבי יוסף קארו,"רבי יוסף קארו היה מגדולי הרבנים והפוסקים בכל הדורות. מחבר ה'שולחן ערוך' וה'בית יוסף'. נולד בספרד בשנת רמ&quot;ח (1488) לאביו ר' אפרים שהיה תלמיד חכם, ואת ראשית חינוכו קיבל ממנו. בהיותו ילד קטן גורש מספרד יחד עם הוריו,&hellip;",גליל עליון,צפת,"<p>ליד התחנה המרכזית, בכביש הכניסה לצפת, פונים ימינה לרח' ירושלים, ומשם פונים שוב ימינה לרח' האר&quot;י, שם בסוף הרח' ישנם מדרגות היורדות אל בית הקברות. בסוף המדרגות ישנו שביל הממשיך ישר אל עבר ציון האר&quot;י, משם פונים שמאלה בשביל אל עבר ציונו של ר' יוסף קארו ה'בית יוסף'.</p>
",32.968266,35.488678
66,רבי ינאי,"רבי ינאי היה מאמוראי ארץ ישראל בדור הראשון. מתלמידי ר' יהודה הנשיא ור' חייא. ייסד בית מדרש בעכברה, הסמוכה לצפת, ובה לימד תורה. מסופר על רוכל שהיה מחזר בעיירות ומכריז כי הוא מוכר סם חיים, אמר לו ר'&hellip;",גליל עליון,עכברה,"<p>מכביש 89 מגיעים לצפת, נוסעים אל עבר בית חולים זיו, כ- 100 מ' לפני הכניסה פונים בכביש עפר ימינה לכפר עכברה. לאחר כ- 3 ק&quot;מ פונים שמאלה עם הכביש ויורדים בדרך עפר לתוך הכפר. לאחר כ- 200 מ' ישנה הסתעפות בדרך עפר ימינה, ממשיכים בדרך עפר הראשית לתוך הכפר, פונים ימינה בדרך צרה, מגיעים לאחר כ- 200 מ' אל חורשת עצי זית, פונים שמאלה, לאחר מכן פונים ימינה ומגיעים אל ציונו של רבי ינאי.</p>",32.939206,35.501142
65,רבי יעקב איש נבוריא,ר' יעקב היה אמורא. חי בארץ במאה השלישית לספירה. נקרא 'נבוריא' ע&quot;ש מקום הולדתו.,,,"<p><span dir=""rtl"" lang=""HE"" style=""line-height: 115%; font-family: 'Arial','sans-serif'; font-size: 11pt; mso-ascii-font-family: Calibri; mso-ascii-theme-font: minor-latin; mso-fareast-font-family: Calibri; mso-fareast-theme-font: minor-latin; mso-hansi-font-family: Calibri; mso-hansi-theme-font: minor-latin; mso-bidi-theme-font: minor-bidi; mso-ansi-language: EN-US; mso-fareast-language: EN-US; mso-bidi-language: HE;""><span style=""color: #000000;"">בכביש 8900 עולים מראש פינה לצפת, פונים צפונה מול כביש הכניסה לצפת, לכיוון בירייה. לאחר מכן מגיעים להסתעפות כבישים ובה כיכר, בכביש השלישי שבכיכר פונים ימינה, ומשם נוסעים ישר בדרך עפר, פונים ימינה לאחר כ- 100 מ' לעבר כביש צר שמוליך לעמוקה. לאחר כ- 2.5 ק&quot;מ פונים שמאלה אל דרך חדשה ולאחר כ- 1.8 ק&quot;מ מגיעים למסעף דרכים, ומשם ממשיכים ישר עד למסעף עמוקה, וממשיכים בדרך העפר הראשית. לאחר כ- 2 ק&quot;מ מגיעים להסתעפות והשביל הסמוך לדרך הימנית יורד כ- 100 מ' למבנה אשר בו נמצאת מערת ר' אלעזר המודעי ור' יעקב איש נבוריא.</span></span></p>",33.003509,35.508898
64,רבי יעקב שמשון משיפיטובקה,"משפחתו של ר' יעקב שמשון הייתה משפחה מיוחסת. ר' יעקב שמשון היה בנו של ר' יצחק רבה של סלויטה, שיפיטובקה, אוהמן ובאר.היה מתלמידי המגיד ממזריטש. נודע בלמדנותו ובחריפותו, ולכן הוטל עליו להפיץ את תורת החסידות ולהסבירה בחוגי הלמדנים.היה&hellip;",גליל תחתון,טבריה,"<p class=""MsoNormal"" dir=""rtl"" style=""margin: 0cm 0cm 10pt;"">נכנסים לטבריה ומגיעים לרח' הבנים, בכיכר רבין פונים שמאלה לרח' הירדן וימינה לרח' יהודה הלוי עד לרח' ברנר. משם נוסעים שמאלה ולאחר מכן ימינה לרח' השילוח, ולאחר כ- 0.5 ק&quot;מ פונים שמאלה לרח' אחוה, ואח&quot;כ ימינה לסוף רח' הנוטר עד לחניית בית הקברות. ושם נמצא ציון קברו של ר' יעקב שמשון.</p>",32.78129,35.5435546
62,רבי ירמיה,"רבי ירמיה הי מגדולי אמוראי ארץ ישראל בדור שלישי ורביעי. נולד בבבל, ועלה לארץ ישראל בצעירותו. היה תלמידו של רבי זירא. התבלט בשאלותיו הרבות, אשר לרובן לא נמצאו תשובות. בית מדרשו היה בעיר טבריה. &nbsp;",גליל תחתון,טבריה,"<p class=""MsoNormal"" dir=""rtl"" style=""margin: 0cm 0cm 10pt;"">מכביש 90 נכנסים לטבריה. נוסעים בשדרות קפלן עד הכניסה הראשית של מלון 'גני חמת' שמימין לכביש. נכנסים לשטח המלון, ופונים לאחר כ- 100 מ' ימינה אל דרך עפר, פונים שמאלה בהסתעפות הדרכים, וממשיכים בכביש הראשי. נכנסים לאחר כ- 200 מ' לכניסה נוספת לשטח המלון, בצד שמאל ישנם בתים קטנים, לאחר הבית השלישי נמצא קברו של רבי ירמיה.</p>",32.769597,35.54577
59,רבי ישמעאל,"רבי ישמעאל היה מגדולי התנאים בדור השלישי. חברו של ר' עקיבא. היה נכדו של ר' ישמעאל בן אלישע כהן גדול, ואף אביו נקרא בשם אלישע. היה חכם גדול ובקי באגדות.",גליל עליון,פרוד,"<p><span dir=""rtl"" lang=""HE"" style=""line-height: 115%; font-family: 'Arial','sans-serif'; font-size: 11pt; mso-ascii-font-family: Calibri; mso-ascii-theme-font: minor-latin; mso-fareast-font-family: Calibri; mso-fareast-theme-font: minor-latin; mso-hansi-font-family: Calibri; mso-hansi-theme-font: minor-latin; mso-bidi-theme-font: minor-bidi; mso-ansi-language: EN-US; mso-fareast-language: EN-US; mso-bidi-language: HE;""><span style=""color: #000000;"">נוסעים בכביש 886, ומצפון- מזרח לצומת חנניה פונים לכביש הכניסה לפרוד. ולאחר מכן פונים ימינה אל דרך עפר. לאחר כ- 250 מ' פונים שמאלה, ומגיעים לשטח חניה. חוצים אפיק נחל, ומגיעים אל ציון ר' נחמיה העמסוני, יורדים משם במדרגות אל עבר מערת ר' ישמעאל.</span></span></p>",32.933066,35.434318
60,רבי ישמעאל בן אלישע כהן גדול,"רבי ישמעאל היה כהן גדול בימי בית המקדש השני, מראשי הדור הראשון של התנאים. היה מעשרת הרוגי מלכות, ונהרג יחד עם רבן שמעון בן גמליאל בכ&quot;ה סיון בשנת ג' תתכ&quot;ח (68). 'תניא: אמר רבי ישמעאל בן אלישע: פעם&hellip;",גליל עליון,שזור,"<p>מכביש 85 נכנסים לכביש המוביל לכפר ראמה, כ- 100 מ' לאחר מכן פונים שמאלה לכביש הגישה לשזור. מגיעים לאחר כ- 2 ק&quot;מ לסוף הכביש, ומשם פונים ימינה, אח&quot;כ שמאלה, ולאחר מכן שוב שמאלה, ממשיכים עוד כ- 350 מ' בכביש היוצא מחוץ לכפר, עד לבנין גדול. משם ממשיכים בדרך עפר אל מבנה קטן עם כיפה, זהו ציונו של רבי ישמעאל כהן גדול.</p>",32.938397,35.34147
58,רבי ישמעאל ברבי יוסי,"רבי ישמעאל היה תנא בדור החמישי, בנו של ר' יוסי בן חלפתא. היה תלמידו של אביו, ואת כל מאמריו בהלכה הביא בשם אביו. התגורר בציפורי ושם הורה הוראות הלכה. &nbsp;",גליל עליון,דלתון,"<p>נכנסים לדלתון מצפון לצפת, מכביש 886. נוסעים מזרחה, בצד שמאל, ליד עץ זית, נמצא קברו של רבי ישמעאל.</p>",33.022884,35.499212
61,רבי יששכר דב בער מזלוטשוב,"רבי יששכר היה בנו של ר' ליב. מתלמידי המגיד ממזריטש, ראש בית הדין של זלוטשוב. חותנו של ר' אברהם חיים מזלוטשוב. חיבר את הספר 'בת עיני'. כשעלה לארץ ישראל, שלח ממנה כתבים על הפסוקים בתורה שנדפסו בשם 'מבשר&hellip;",גליל עליון,צפת,"<p>ליד התחנה המרכזית, בכביש הכניסה לצפת, פונים ימינה לרח' ירושלים, ומשם פונים שוב ימינה לרח' האר&quot;י, שם בסוף הרח' ישנם מדרגות היורדות אל בית הקברות. שם ממשיכים ישר בשביל הפונה אל ציון הארי, משם פונים שמאלה בשביל עד לציון קברו של רבי יששכר דב בער.</p>
",32.9697997,35.489746
52,רבי לוי בר סיסי,"ר' לוי בר סיסי היה מחכמי ארץ ישראל, מאחרוני התנאים ומראשוני האמוראים. היה תלמידו של ר' יהודה הנשיא. נאלץ לרדת לבבל שם היה חברו של אבא בר אבא – אביו של שמואל, ושמואל היה תלמידו. לאחר פטירתו הגיע&hellip;",גליל עליון,סאסא,"<p>נכנסים לקיבוץ סאסא (על כביש 89), לאחר כ- 650 מ' מתעקל הכביש ימינה, ולאחר נסיעה קצרה רואים משמאל לכביש את מערת ר' לוי בר סיסי.</p>
<p> </p>",33.027094,35.396409
51,רבי לויטס איש יבנה,"רבי לויטס היה תנא בדור השלישי. חי בעיר יבנה, וזהו מקור שמו 'איש יבנה'. &nbsp;",גליל עליון,צפת,"<p>מכביש 89 נכנסים לצפת לכיוון בית החולים זיו, כ- 100 מ' לפני כביש הכניסה לביה&quot;ח פונים ימינה לכיוון כפר עכברה, לאחר כ- 3 ק&quot;מ פונים שמאלה בדרך עפר והיורדת לתוך הכפר, מגיעים להסתעפות דרך עפר ופונים מעט שמאלה בדרך ההר, עוקפים את ההר ויורדים אל הנחל הנמצא בצידו השני של ההר, שם נובע מעיין קטן, משם עולים עם הנחל, ופונים שמאלה בשביל תלול העולה אל ציון עקיבא בן מהללאל. משם פונים דרומה, ולאחר כ- 1 ק&quot;מ ישנה מערה גבוהה, באמצע הצוקים, וסביבותיה נקיקים, שם נמצא קברו של ר' לויטס איש יבנה.</p>",32.934004,35.507526
49,רבי מאיר בעל הנס,"ר' מאיר היה מגדולי התנאים בדור הרביעי. תלמידו המובהק של ר' עקיבא. היה בן גרים. אשתו הייתה ברוריה, בתו של ר' חנניה בן תרדיון, אשר נחשבה לחכמה ובקיאה בתורה. חבריו של ר' מאיר היו ר' יהודה בר אלעאי,&hellip;",גליל תחתון,טבריה,"<p>מכביש 90 נכנסים לטבריה, ומגיעים אל שדרות קפלן. פונים שמאלה לפני 'חמי טבריה' אל ציון קברו של ר' מאיר בעל הנס.</p>",32.76579,35.550105
48,רבי מאיר שליח צבור,"ר' מאיר היה בנו של ר' יצחק. חי בורמיזא במחצית השנייה של המאה האחת עשרה. שם שימש כחזן. חיבר את הפיוט 'אקדמות מילין' הנאמר בחג השבועות, וכן עוד פיוטים רבים. &nbsp;",גליל עליון,גוש חלב,"<p>מכביש 89 נכנסים לרחוב הראשי של כפר גוש חלב, ולאחר כ- 280 מ' יורדים שמאלה במדרגות אל מצבה המוקפת גדר, שם קבור ר' מאיר שליח צבור.</p>",33.023574,35.446163
46,רבי מימון בר יוסף הדיין,"רבי מימון אביו של הרמב&quot;ם, היה תלמיד חכם גדול, דיין בבית דין של ר' יוסף אבן מיגאש. עקב הפרעות ביהודים נאלץ לעזוב את ספרד ולעבור למרוקו, אף משם נאלץ לברוח בעקבות הגזרות, ועבר בארץ ישראל, לאחר מכן המשיכו&hellip;",גליל תחתון,טבריה,"<p>מכביש 90 נכנסים לטבריה ומגיעים לרח' הבנים, פונים שמאלה בכיכר רבין לרח' הירדן, ולאחר מכן וימינה לרח' ריב&quot;ז. לאחר כ- 200 מ' רואים בצד ימין חצר ובה קבור הרמב&quot;ם, שם אף נמצא מקום קברו של רבי מימון.</p>",32.789767,35.537541
44,רבי מנחם מנדל מוויטבסק,"רבי מנחם מנדל נולד בוויטבסק בשנת ת&quot;ץ (1730), לאביו ר' משה שהיה ממקורבי הבעש&quot;ט. לאחר שגדל התגורר במינסק, והיה מגדולי תלמידי המגיד ממזריטש. לאחר פטירתו של המגיד חזר ר' מנחם מנדל לוויטבסק, ולאחר מכן השתקע בהורודוקי הסמוכה. שם&hellip;",גליל תחתון,טבריה,"<p>נכנסים לטבריה ומגיעים לרח' הבנים, בכיכר רבין פונים שמאלה לרח' הירדן וימינה לרח' יהודה הלוי עד לרח' ברנר. משם נוסעים שמאלה ולאחר מכן ימינה לרח' השילוח, ולאחר כ- 0.5 ק&quot;מ פונים שמאלה לרח' אחוה, ואח&quot;כ ימינה לסוף רח' הנוטר עד לחניית בית הקברות.</p>",32.780815,35.544071
45,רבי מנחם מנדל מפרימשלאן,ר' מנחם מנדל בנו של ר' אליעזר. מתלמידי הבעש&quot;ט וידידו של המגיד ממזריטש. עמד בראש שיירת העולים לארץ ישראל בי&quot;ב תשרי בשנת תקכ&quot;ה (1765) יחד עם ר' נחמן מהורודנקא. התיישב בטבריה ושם אף נפטר בכ&quot;א תשרי תקל&quot;א (1771).&hellip;,גליל תחתון,טבריה,"<p>נכנסים לטבריה ומגיעים לרח' הבנים, בכיכר רבין פונים שמאלה לרח' הירדן וימינה לרח' יהודה הלוי עד לרח' ברנר. משם נוסעים שמאלה ולאחר מכן ימינה לרח' השילוח, ולאחר כ- 0.5 ק&quot;מ פונים שמאלה לרח' אחוה, ואח&quot;כ ימינה לסוף רח' הנוטר עד לחניית בית הקברות.</p>",32.78129,35.5435546
42,רבי משה אלשיך,"ר' משה אלשיך, המכונה ה'אלשיך הקדוש', נולד באדרינופולי בשנת ר&quot;פ (1520) לערך, לאביו ר' חיים. בצעירותו למד בישיבה של ר' יוסף קארו, ולאחר מכן עבר לישיבתו של המקובל ר' יוסף טייטאצאק בסלוניקי. בשנת ה' רצ&quot;ה (1535) עלה לארץ&hellip;",גליל עליון,צפת,"<p> ליד התחנה המרכזית, בכביש הכניסה לצפת, פונים ימינה לרח' ירושלים, ומשם פונים שוב ימינה לרח' האר&quot;י, בסוף הרח' ישנם מדרגות היורדות אל בית הקברות. בסוף המדרגות פונים שמאלה בשביל אל עבר ציון ה'בית יוסף', משם ממשיכים עם השביל אל עבר מבנה עם כיפה הנקרא 'מערת הנביא', לאחר מכן נמצאת המערה של ר' משה אלשיך.</p>
",32.968112,35.488671
37,רבי מתיא בן חרש,"ר' מתיא בן חרש היה תנא בדור השלישי והרביעי. נולד בארץ ישראל, ועבר לגור ברומי. חי בזמנו של ר' שמעון בר יוחאי. רבותיו היו ר' אליעזר הגדול, ר' ישמעאל ור' אלעזר בן עזריה. מאמרו המפורסם: 'הוי מקדים בשלם&hellip;",גליל תחתון,עילבון,"<p>בכביש 65, כ- 7 ק&quot;מ צפונה מצומת גולני, פונים שמאלה בצומת עילבון, אל עבר כביש 806. ונכנסים ימינה אל כפר עילבון. מול הכניסה לכפר עולים שמאלה בדרך עפר, לאחר כ- 370 מ' מגיעים אל שער קטן שבגדר, מימין לדרך. בשער יורדים בשביל צר ומדרגות אל עבר ציונו של ר' מתיא בן חרש. </p>",32.838348,35.39758
35,רבי נחמיה העמסוני,רבי נחמיה היה תנא בדור הרביעי. מתלמידי ר' עקיבא במשך עשרים ושתים שנה.,גליל עליון,פרוד,"<p>מכביש 886 נכנסים אל כביש הגישה לפרוד. פונים ימינה לאחר כ- 50 מ' אל דרך עפר, לאחר כ- 250 מ' פונים שמאלה, עד שמגיעים לשטח חניה, שם חוצים אפיק נחל ומגיעים לציונו של ר' נחמיה.</p>",32.933438,35.429115
33,רבי נחמן מהורדנקא,"רבי נחמן מהורדנקא נולד בזולקוא בשנת ת&quot;מ (1680) לערך, לאביו רבי יצחק. היה מתלמידיו הראשונים והקרובים של הבעש&quot;ט, ולימים אף מחותנו. נכדו היה רבי נחמן מברסלב. עסק כל ימיו בפדיון שבויים, ופעמים רבות אף אסף כספים למטרה זו.&hellip;",גליל תחתון,טבריה,"<p class=""MsoNormal"" dir=""rtl"" style=""margin: 0cm 0cm 10pt;"">נכנסים לטבריה ומגיעים לרח' הבנים, בכיכר רבין פונים שמאלה לרח' הירדן וימינה לרח' יהודה הלוי עד לרח' ברנר. משם נוסעים שמאלה ולאחר מכן ימינה לרח' השילוח, ולאחר כ- 0.5 ק&quot;מ פונים שמאלה לרח' אחוה, ואח&quot;כ ימינה לסוף רח' הנוטר עד לחניית בית הקברות.</p>",32.78077,35.544076
26,רבי עמרם חסידא,"רבי עמרם חסידא היה מאמוראי בבל בדור השני לאמוראים. נולד בשנת תק&quot;ן (1790) לאביו ר' משה נחום. כבר בהיותו בן 24 כיהן כרבה של אירשא, ולאחר שש שנים נתקבל כרבה של מאד. היה חברו של ר' משה סופר&hellip;",גליל עליון,צפת,"<p class=""MsoNormal"" dir=""rtl"" style=""margin: 0cm 0cm 10pt;"">ליד התחנה המרכזית, בכביש הכניסה לצפת, פונים ימינה לרח' ירושלים, ומשם פונים שוב ימינה לרח' האר&quot;י, שם בסוף הרח' ישנם מדרגות היורדות אל בית הקברות.</p>",32.968295,35.488646
24,רבי עקיבא,"ר' עקיבא בן יוסף היה גדול התנאים, ומגדולי חכמי ארץ ישראל. נולד בשנת ג' תש&quot;ס. חי בתקופת חורבן הבית וחורבן ביתר. תלמידיו היו רשב&quot;י, ר' יהודה, ר' מאיר, ר' יוסי ועוד.. בתחילה היה ר' עקיבא רועה צאנו של&hellip;",גליל תחתון,טבריה,"<p>מכביש 90 נכנסים לטבריה, נוסעים לרח' אלחדף, משם פונים ימינה אל רח' אוהל יעקב, שמאלה לרח' נייברג, שוב שמאלה לרח' שמעון דהאן, לאחר מכן פונים ימינה, ומיד שמאלה לרח' החשמונאים, ושוב שמאלה לרח' טרומפלדור, וימינה לרח' הגבורה, שם בסוף הרח' נמצאת המערה של ר' עקביא.</p>",32.788525,35.528758
23,רבי פנחס בן יאיר,"ר' פנחס בן יאיר היה תנא בדור החמישי. חתנו של רשב&quot;י, ואף למד עמו תורה. היה חברו של ר' יהודה הנשיא. מסופר כי כשהגיע ר' פנחס למקום אחד, התלוננו בפניו כי עכברים אוכלים להם את התבואה. גזר על&hellip;",גליל עליון,צפת,"<p> ליד התחנה המרכזית, בכביש הכניסה לצפת, פונים ימינה לרח' ירושלים, ומשם פונים שוב ימינה לרח' האר&quot;י, בסוף הרח' ישנם מדרגות היורדות עד לבית הקברות. בתחתית בית הקברות, ליד העץ, נמצא קברו של ר' פנחס.</p>
<p> </p>
",32.96824,35.488647
21,רבי ראובן בן אצטרובלי,ר' ראובן בן אצטרובלי היה תנא בדור הרביעי. חי בזמן רשב&quot;י. ר' יהודה הנשיא היה רבם של שני בניו. &nbsp;,גליל תחתון,עראבה,"<p>מכביש 70 פונים מזרחה בצומת יבור אל כביש 805. ממשיכים אחרי סחנין ומגיעים לתחנת דלק שבכפר עראבה, כ- 150 מ' אחרי תחנת הדלק פונים ימינה, ולאחר כ- 500 מ' רואים בית קברות, בצד ימין. בתחילת בית הקברות ישנו ארון קבורה עתיק מאבן, זהו מקום קבורתו של ר' ראובן.</p>",32.852885,35.337491
7,רבי שלמה אבן גבירול,"ר' שלמה אבן גבירול נולד במאלגה שבספרד בשנת ד' תשפ&quot;א (1021) לערך, לאביו ר' יהודה. היה מגדולי המשוררים והוגי הדעות היהודיים בתור הזהב של יהדות ספרד. סבל בחייו מתחלואים שונים. נפטר ערירי בגיל צעיר בשנת ד' תת&quot;י (1050).&hellip;",גליל מערבי,כאבול,"<p class=""MsoNormal"" dir=""rtl"" style=""margin: 0cm 0cm 10pt;"">נוסעים בכביש 70, וכ- 4.5 ק&quot;מ דרומית לצומת אחיהוד פונים מזרחה בכביש שנכנס לכפר כבול, לאחר כ- 3 ק&quot;מ בתוך הכפר פונים ימינה ומיד שמאלה במעלה הכפר, לאחר כ- 570 מ' בצד ימין רואים מבנה עתיק עם כיפה ובו מצבת ציונו של ר' שלמה אבן גבירול.</p>",32.866701,35.217829
107,רבי שלמה אלקבץ,ר' שלמה אלקבץ היה מקובל ופייטן צפתי. נודע בשל פיוטו &quot;לכה דודי&quot;. עיקר פעילותו ותרומתו בתחום חכמת הנסתר. נפטר ונקבר בצפת. &nbsp;,גליל עליון,צפת,"<p>בכביש הכניסה לצפת, סמוך לתחנה מרכזית, פונים ימינה לרח' ירושלים, ומשם ימינה לרח' האר&quot;י, בסוף הרחוב ישנם מדרגות היורדות עד לבית הקברות.</p>
",32.968413,35.488653
6,רבי שמעון בן אלעזר,ר' שמעון בן אלעזר היה תנא בדור החמישי לתנאים. מתלמידי ר' מאיר וחברו של ר' יהודה הנשיא. &nbsp;,גליל עליון,שזור,"<p>מכביש 85 נכנסים לכביש המוביל לכפר ראמה, כ- 100 מ' לאחר מכן פונים שמאלה לכביש הגישה לשזור. מגיעים לאחר כ- 2 ק&quot;מ לסוף הכביש, ומשם פונים ימינה, אח&quot;כ שמאלה, ולאחר מכן שוב שמאלה, ממשיכים עוד כ- 350 מ' בכביש היוצא מחוץ לכפר, עד לבנין גדול. משם ממשיכים בדרך עפר אל מבנה קטן עם כיפה, זהו ציונו של רבי ישמעאל כהן גדול. ממול, במרחק של כ- 150 מ' נמצאת מצבת ר' שמעון.</p>",32.939838,35.342239
14,רבי שמעון בן לקיש – ריש לקיש,"רבי שמעון בן לקיש היה מגדולי אמוראי ארץ ישראל בדור השני לאמוראים. תלמידו וחברו של ר' יוחנן. ולימים נשא לאישה את אחותו של ר' יוחנן. נקרא 'ריש לקיש' – ראש הגנבים, במשך תקופה היה מנהיג קבוצה של שודדים.&hellip;",גליל עליון,חורבת קציון,"<p>בכביש 90 נוסעים צפונה, פונים שמאלה לאחר צומת מחניים בדרך עפר, לאחר כ- 1.5 ק&quot;מ פונה הדרך ימינה, ומסתעפת ממנה דרך חדשה, עולים בדרך זו, לאחר כ- 2.2 ק&quot;מ פונים ימינה, ולאחר כ- 2 ק&quot;מ מגיעים לחורבת קציון, בצד שמאל, במורד הגבעה, נמצאת מערת ר' שמעון.</p>",33.044497,35.532738
3,רבי שמעון בן מנסיא,"רבי שמעון בן מנסיא היה תנא בדור החמישי לתנאים. חי בתקופת ר' יהודה הנשיא. תלמידו של ר' מאיר, וחברו של ר' יוסי בן המשולם. &nbsp;",גליל עליון,מירון,"<p class=""MsoNormal"" dir=""rtl"" style=""margin: 0cm 0cm 10pt;"">פונים מזרחה מצומת מירון בכביש 89 לכיוון צפת, לאחר כ- 4 ק&quot;מ ממירון ישנה דרך עפר. בצד שמאל של הדרך, פונה שביל אל עבר מבנה קברו של ר' שמעון.</p>",32.984595,35.476256
12,רבי שמעון שזורי,"רבי שמעון שזורי היה תנא בדור הרביעי. חברם של ר' יהודה, ר' מאיר, ר' שמעון ור' יוסי. רבו היה ר' טרפון. נקרא 'שזורי' על שם הכפר בו חי – שזור, או על שם מלאכתו – שזירת חבלים. &nbsp;",גליל עליון,שזור,"<p>מכביש 85 נכנסים לכביש המוביל לכפר רמה, כ- 100 מ' לאחר מכן פונים שמאלה לכביש הגישה לשזור. מגיעים לאחר כ- 2 ק&quot;מ לסוף הכביש, ומשם פונים ימינה, אח&quot;כ שמאלה, ולאחר מכן שוב שמאלה, ממשיכים עוד כ- 350 מ' בכביש היוצא מחוץ לכפר, עד לבנין גדול. משם ממשיכים בדרך עפר אל מבנה קטן עם כיפה, זהו ציונו של רבי ישמעאל כהן גדול. ממול לפתח, בין העצים נמצאת מצבתו של ר' שמעון. </p>",32.939208,35.34193
105,רבינו בחיי,"ישנם שניים שהיו קרויים רבינו בחיי, לא ידוע איזה מהם קבור בחוקוק: א. רבינו בחיי בן יוסף אבן פקודה. מחבר ספר 'חובת הלבבות' בערבית, אשר תורגם לראשונה לעברית ע&quot;י  ר' יהודה אבן תבון בשנת ד' תתקכ&quot;א. ב. רבינו&hellip;",גליל תחתון,חוקוק,"<p>פונים מערבה מכביש 90 בצומת עמיעד לעבר כביש 85,ופונים דרומה בצומת נחל עמוד (צומת קדרים) לכביש 65, לאחר כ- 2 ק&quot;מ פונים מערבה לדרך עפר, שם ישנו מבנה העומד על גבי עמודים עם כיפה גדולה זהו ציונו של רבינו בחיי.</p>",32.891494,35.479819
83,רבן יוחנן בן זכאי,"רבן יוחנן בן זכאי היה מגדולי התנאים בדור הראשון. מתלמידי הלל הזקן, וכמו הלל אף הוא חי מאה ועשרים שנה. בזמן המצור על ירושלים יצא רבן יוחנן בערמה ונפגש עם אספסיינוס שהיה מלא התפעלות מחכמתו של רבן יוחנן,&hellip;",גליל תחתון,טבריה,"<p>נכנסים לטבריה מכביש 90 ומגיעים לרח' הבנים, פונים שמאלה בכיכר רבין לעבר רח' הירדן, ולאחר מכן ימינה לרח' רבן יוחנן בן זכאי, לאחר כ- 200 מ' רואים בצד ימין חצר גדולה אשר בה נמצא קברו של הרמב&quot;ם, ושם אף קברו של רבן יוחנן.</p>",32.789695,35.537613
15,רבן שמעון בן גמליאל,"רבן שמעון היה נשיא, הרביעי מבית הלל. חי בדור השני לתנאים. בנו של רבן גמליאל, ואביו של רבן גמליאל דיבנה. היה אחד מעשרת הרוגי מלכות. &nbsp;",גליל תחתון,כפר כנא,"<p class=""MsoNormal"" dir=""rtl"" style=""margin: 0cm 0cm 10pt;"">פונים מכביש 77, בצומת בית רימון, דרומה &#8211; אל עבר כביש 754. לאחר כ- 2.5 ק&quot;מ פונים ימינה לכפר כנא. לאחר כ- 500 מ' ישנה כניסה, בצד שמאל, המובילה אל מטע זיתים. כ- 100 מ' מהכניסה, באלכסון ימינה בתוך מטע הזיתים, לרגלי הגבעה, נמצאת המערה של רבן שמעון.</p>",32.743039,35.335445
19,רחל אשת רבי עקיבא,"רחל בתו של כלבא שבוע ואשת ר' עקיבא.  בתחילה היה ר' עקיבא רועה צאנו של כלבא שבוע. ולאחר מכן נשא לאישה את רחל, אשר ראתה כי הוא צנוע ומעולה. מששמע כלבא שבוע על רצון בתו להינשא לעקיבא הדיר&hellip;",גליל תחתון,טבריה,"<p>מכביש 90 נכנסים לטבריה ומגיעים אל שדרות קפלן. בצומת פונים שמאלה לרח' אחווה. פונים ימינה לאחר כ- 300 מ' לדרך עפר, המוליכה עד לקברה של רחל.</p>",32.779599,35.542235
18,שבואל בן גרשום,"שבואל בן גרשום הוא נכדו של משה רבנו. &quot;ונביא אחד יושב בבית אל&quot; (מלכים א' יג, יא) – מדובר על שבואל בן גרשום. &nbsp;",,,"<p>בכביש 90 נוסעים מזרחה, ולאחר כ- 2.5 ק&quot;מ פונים שמאלה למגרשי החנייה של מעיינות הבניאס. לאחר כ- 100 מ' פונים שמאלה, דרך שער, לכביש צר, אשר מגיע אל מבנה עם כיפה, שמתוכו צומח עץ עבות. זהו מקום קברו של שבואל.</p>",33.246887,35.694185
104,שמאי הזקן,"שמאי הזקן היה מגדולי חכמי ישראל, כמאה שנה לפני חורבן בית שני. הלל ושמאי היו הזוג האחרון בתקופת הזוגות, הלל היה נשיא ושמאי אב בית דין. למרות שהיה קפדן עם רשעים, היו עיניו עם צדיקים, וכל מעשיו לשם&hellip;",גליל עליון,מירון,"<p>ליד החניון, לפני הכניסה למושב מירון, פונים מהכביש בדרך עפר במעלה הנחל, המגיעה לאחר כ- 500 מ' למעיין ולידו בית שאיבה, משם ממשיכים שמאלה בדרך עפר לראש ההר, לאחר כ- 550 מ' מגיעים.</p>",32.976872,35.438764
11,שת בן אדם הראשון,"שת היה בנם השלישי של אדם וחוה. נולד בשנת ק&quot;ל לבריאת העולם, לאחר מות הבל אחיו. שמו מוסבר בפס': &quot;כי שת (נתן) לי ה' בן אחר תחת הבל כי הרגו קין&quot; (בראשית ד, כ&quot;ה). שת חי 912 שנה&hellip;",,,"<p>פונים מדרך מנחם בגין שבטבריה אל צומת כפר חיטים מערבה לכביש 7717. לאחר כ- 3 ק&quot;מ פונים ימינה לעבר מושב ארבל, ולאחר כ- ק&quot;מ פונים שמאלה, וממשיכים עד לאחר הבתים האחרונים של המושב, שם נמצא מקום קברו של שת.</p>",32.813702,35.475646